{
"type": "FeatureCollection",
"crs": { "type": "name", "properties": { "name": "urn:ogc:def:crs:OGC:1.3:CRS84" } },
"features": [
{ "type": "Feature", "properties": { "ACCT": "332624", "Steet Name": "Colesville Manor", "City": "SILV", "ZIP": 20904, "Licence Type": "ACC", "Lic Status": "EX", "Point X": 1311838.0, "Point Y": 516893.0 }, "geometry": { "type": "Point", "coordinates": [ -77.001745050522004, 39.085965116278409 ] } },
{ "type": "Feature", "properties": { "ACCT": "1741671", "Steet Name": "Friars", "City": "BETH", "ZIP": 20817, "Licence Type": "ACC", "Lic Status": "LI", "Point X": 1274691.0, "Point Y": 489341.0 }, "geometry": { "type": "Point", "coordinates": [ -77.132472410409633, 39.010241413479747 ] } },
{ "type": "Feature", "properties": { "ACCT": "2158098", "Steet Name": "Colesberg", "City": "SILV", "ZIP": 20905, "Licence Type": "ACC", "Lic Status": "EX", "Point X": 1318686.0, "Point Y": 524881.0 }, "geometry": { "type": "Point", "coordinates": [ -76.977612751209548, 39.107895163278727 ] } },
{ "type": "Feature", "properties": { "ACCT": "3447050", "Steet Name": "Aventurine", "City": "SILV", "ZIP": 20904, "Licence Type": "ACC", "Lic Status": "LI", "Point X": 1322610.0, "Point Y": 510838.0 }, "geometry": { "type": "Point", "coordinates": [ -76.963803920548656, 39.069334609116908 ] } },
{ "type": "Feature", "properties": { "ACCT": "1761623", "Steet Name": "Black Rock", "City": "GERM", "ZIP": 20874, "Licence Type": "ACC", "Lic Status": "LI", "Point X": 1225486.0, "Point Y": 535076.0 }, "geometry": { "type": "Point", "coordinates": [ -77.306175515624517, 39.135489060611441 ] } },
{ "type": "Feature", "properties": { "ACCT": "407228", "Steet Name": "Chestnut Oak", "City": "GAIT", "ZIP": 20878, "Licence Type": "ACC", "Lic Status": "EX", "Point X": 1234781.0, "Point Y": 525170.0 }, "geometry": { "type": "Point", "coordinates": [ -77.273302156500364, 39.108372051271971 ] } },
{ "type": "Feature", "properties": { "ACCT": "410966", "Steet Name": "Bradbury", "City": "GAIT", "ZIP": 20878, "Licence Type": "ACC", "Lic Status": "LI", "Point X": 1240496.0, "Point Y": 533711.0 }, "geometry": { "type": "Point", "coordinates": [ -77.253245532941023, 39.13186758664218 ] } },
{ "type": "Feature", "properties": { "ACCT": "412032", "Steet Name": "Cherry Grove", "City": "GAIT", "ZIP": 20878, "Licence Type": "ACC", "Lic Status": "LI", "Point X": 1244587.0, "Point Y": 525178.0 }, "geometry": { "type": "Point", "coordinates": [ -77.238745077167692, 39.108469525064848 ] } },
{ "type": "Feature", "properties": { "ACCT": "411174", "Steet Name": "Bradbury", "City": "GAIT", "ZIP": 20878, "Licence Type": "ACC", "Lic Status": "PE", "Point X": 1240087.0, "Point Y": 533883.0 }, "geometry": { "type": "Point", "coordinates": [ -77.25468904994031, 39.132336706748127 ] } },
{ "type": "Feature", "properties": { "ACCT": "2098212", "Steet Name": "Beall Creek", "City": "GAIT", "ZIP": 20877, "Licence Type": "ACC", "Lic Status": "EX", "Point X": 1236616.0, "Point Y": 506368.0 }, "geometry": { "type": "Point", "coordinates": [ -77.266641934012469, 39.056763478357304 ] } },
{ "type": "Feature", "properties": { "ACCT": "1743134", "Steet Name": "Bradley", "City": "CHEV", "ZIP": 20815, "Licence Type": "ACC", "Lic Status": "EX", "Point X": 1290774.0, "Point Y": 477220.0 }, "geometry": { "type": "Point", "coordinates": [ -77.075837069860881, 38.977011145561072 ] } },
{ "type": "Feature", "properties": { "ACCT": "1069511", "Steet Name": "Cedar", "City": "TAKO", "ZIP": 20912, "Licence Type": "ACC", "Lic Status": "EX", "Point X": 1308003.0, "Point Y": 477360.0 }, "geometry": { "type": "Point", "coordinates": [ -77.015232456882217, 38.977419141515803 ] } },
{ "type": "Feature", "properties": { "ACCT": "2289177", "Steet Name": "Peach Leaf", "City": "GAIT", "ZIP": 20878, "Licence Type": "ACC", "Lic Status": "LI", "Point X": 1242289.0, "Point Y": 526424.0 }, "geometry": { "type": "Point", "coordinates": [ -77.246855301634326, 39.111873788299555 ] } },
{ "type": "Feature", "properties": { "ACCT": "28036", "Steet Name": "Joyce", "City": "CLAR", "ZIP": 20871, "Licence Type": "ACC", "Lic Status": "EX", "Point X": 1231802.0, "Point Y": 589082.0 }, "geometry": { "type": "Point", "coordinates": [ -77.284502321356186, 39.283821097020954 ] } },
{ "type": "Feature", "properties": { "ACCT": "1230144", "Steet Name": "Farthing", "City": "SILV", "ZIP": 20906, "Licence Type": "ACC", "Lic Status": "EX", "Point X": 1292972.0, "Point Y": 508295.0 }, "geometry": { "type": "Point", "coordinates": [ -77.068187039691679, 39.062338135893846 ] } },
{ "type": "Feature", "properties": { "ACCT": "3173237", "Steet Name": "Poplar", "City": "TAKO", "ZIP": 20912, "Licence Type": "ACC", "Lic Status": "EX", "Point X": 1311490.0, "Point Y": 475368.0 }, "geometry": { "type": "Point", "coordinates": [ -77.002966295598597, 38.971950633406379 ] } },
{ "type": "Feature", "properties": { "ACCT": "1139658", "Steet Name": "Thornwood", "City": "KENS", "ZIP": 20895, "Licence Type": "ACC", "Lic Status": "EX", "Point X": 1287502.0, "Point Y": 492550.0 }, "geometry": { "type": "Point", "coordinates": [ -77.087398271216188, 39.019094690588318 ] } },
{ "type": "Feature", "properties": { "ACCT": "1321240", "Steet Name": "Palmira", "City": "SILV", "ZIP": 20906, "Licence Type": "ACC", "Lic Status": "PE", "Point X": 1290552.0, "Point Y": 513944.0 }, "geometry": { "type": "Point", "coordinates": [ -77.076726550248637, 39.07784307577608 ] } },
{ "type": "Feature", "properties": { "ACCT": "1075396", "Steet Name": "Sycamore", "City": "TAKO", "ZIP": 20912, "Licence Type": "ACC", "Lic Status": "PE", "Point X": 1310700.0, "Point Y": 477342.0 }, "geometry": { "type": "Point", "coordinates": [ -77.005745437461385, 38.977370569537278 ] } },
{ "type": "Feature", "properties": { "ACCT": "2734545", "Steet Name": "Rosewood Manor", "City": "GAIT", "ZIP": 20882, "Licence Type": "ACC", "Lic Status": "EX", "Point X": 1268686.0, "Point Y": 554783.0 }, "geometry": { "type": "Point", "coordinates": [ -77.153993911744394, 39.189895292601278 ] } },
{ "type": "Feature", "properties": { "ACCT": "682597", "Steet Name": "Owen", "City": "BETH", "ZIP": 20817, "Licence Type": "ACC", "Lic Status": "LI", "Point X": 1271463.0, "Point Y": 475987.0 }, "geometry": { "type": "Point", "coordinates": [ -77.143758491856389, 38.973561909629595 ] } },
{ "type": "Feature", "properties": { "ACCT": "1077613", "Steet Name": "Pine", "City": "TAKO", "ZIP": 20912, "Licence Type": "ACC", "Lic Status": "EX", "Point X": 1309690.0, "Point Y": 476330.0 }, "geometry": { "type": "Point", "coordinates": [ -77.009297866513037, 38.974591679122604 ] } },
{ "type": "Feature", "properties": { "ACCT": "1679538", "Steet Name": "Beechdale", "City": "ROCK", "ZIP": 20855, "Licence Type": "ACC", "Lic Status": "LI", "Point X": 1276069.0, "Point Y": 544408.0 }, "geometry": { "type": "Point", "coordinates": [ -77.127894407458726, 39.16144117108206 ] } },
{ "type": "Feature", "properties": { "ACCT": "1869821", "Steet Name": "Overlea", "City": "BETH", "ZIP": 20816, "Licence Type": "ACC", "Lic Status": "LI", "Point X": 1278226.0, "Point Y": 468745.0 }, "geometry": { "type": "Point", "coordinates": [ -77.119936682855567, 38.95370424443022 ] } },
{ "type": "Feature", "properties": { "ACCT": "134684", "Steet Name": "Neilwood", "City": "ROCK", "ZIP": 20853, "Licence Type": "ACC", "Lic Status": "LI", "Point X": 1277510.0, "Point Y": 502427.0 }, "geometry": { "type": "Point", "coordinates": [ -77.122613540218836, 39.046182202468046 ] } },
{ "type": "Feature", "properties": { "ACCT": "385", "Steet Name": "Muncaster", "City": "DERW", "ZIP": 20855, "Licence Type": "ACC", "Lic Status": "PE", "Point X": 1278358.0, "Point Y": 545633.0 }, "geometry": { "type": "Point", "coordinates": [ -77.119827409461692, 39.164813048639445 ] } },
{ "type": "Feature", "properties": { "ACCT": "698206", "Steet Name": "Cheshire", "City": "BETH", "ZIP": 20814, "Licence Type": "ACC", "Lic Status": "LI", "Point X": 1278436.0, "Point Y": 494655.0 }, "geometry": { "type": "Point", "coordinates": [ -77.119317314980833, 39.024846174556941 ] } },
{ "type": "Feature", "properties": { "ACCT": "632662", "Steet Name": "Singleton", "City": "BETH", "ZIP": 20817, "Licence Type": "ACC", "Lic Status": "LI", "Point X": 1276694.0, "Point Y": 490540.0 }, "geometry": { "type": "Point", "coordinates": [ -77.125429179095988, 39.013541264530936 ] } },
{ "type": "Feature", "properties": { "ACCT": "423786", "Steet Name": "MacArthur", "City": "BETH", "ZIP": 20816, "Licence Type": "ACC", "Lic Status": "LI", "Point X": 1276501.0, "Point Y": 467913.0 }, "geometry": { "type": "Point", "coordinates": [ -77.125998511049474, 38.951413422344388 ] } },
{ "type": "Feature", "properties": { "ACCT": "448308", "Steet Name": "Ridge", "City": "BETH", "ZIP": 20816, "Licence Type": "ACC", "Lic Status": "LI", "Point X": 1277569.0, "Point Y": 465153.0 }, "geometry": { "type": "Point", "coordinates": [ -77.122230074553272, 38.94383920480891 ] } },
{ "type": "Feature", "properties": { "ACCT": "450563", "Steet Name": "Broad", "City": "BETH", "ZIP": 20816, "Licence Type": "ACC", "Lic Status": "LI", "Point X": 1278654.0, "Point Y": 463490.0 }, "geometry": { "type": "Point", "coordinates": [ -77.118407676078562, 38.939276982971656 ] } },
{ "type": "Feature", "properties": { "ACCT": "933352", "Steet Name": "Watkins", "City": "GAIT", "ZIP": 20882, "Licence Type": "ACC", "Lic Status": "LI", "Point X": 1256950.0, "Point Y": 570551.0 }, "geometry": { "type": "Point", "coordinates": [ -77.195519202707942, 39.233125509106486 ] } },
{ "type": "Feature", "properties": { "ACCT": "813904", "Steet Name": "Emory Grove", "City": "GAIT", "ZIP": 20877, "Licence Type": "ACC", "Lic Status": "EX", "Point X": 1256227.0, "Point Y": 545974.0 }, "geometry": { "type": "Point", "coordinates": [ -77.197883518683838, 39.165643558543778 ] } },
{ "type": "Feature", "properties": { "ACCT": "945111", "Steet Name": "Honeysuckle", "City": "DAMA", "ZIP": 20872, "Licence Type": "ACC", "Lic Status": "LI", "Point X": 1252396.0, "Point Y": 602351.0 }, "geometry": { "type": "Point", "coordinates": [ -77.211856618867998, 39.320404552658879 ] } },
{ "type": "Feature", "properties": { "ACCT": "124300", "Steet Name": "Atwell", "City": "POTO", "ZIP": 20854, "Licence Type": "ACC", "Lic Status": "EX", "Point X": 1261749.0, "Point Y": 506197.0 }, "geometry": { "type": "Point", "coordinates": [ -77.178134069345433, 39.056462078263174 ] } },
{ "type": "Feature", "properties": { "ACCT": "875360", "Steet Name": "Fenway", "City": "BETH", "ZIP": 20817, "Licence Type": "ACC", "Lic Status": "LI", "Point X": 1263578.0, "Point Y": 481628.0 }, "geometry": { "type": "Point", "coordinates": [ -77.171530641646797, 38.989013052223441 ] } },
{ "type": "Feature", "properties": { "ACCT": "3077658", "Steet Name": "80th", "City": "CABI", "ZIP": 20818, "Licence Type": "ACC", "Lic Status": "PE", "Point X": 1265415.0, "Point Y": 477203.0 }, "geometry": { "type": "Point", "coordinates": [ -77.165039591375702, 38.97687260649581 ] } },
{ "type": "Feature", "properties": { "ACCT": "1977681", "Steet Name": "Mountain Laurel", "City": "GAIT", "ZIP": 20879, "Licence Type": "ACC", "Lic Status": "EX", "Point X": 1264327.0, "Point Y": 544551.0 }, "geometry": { "type": "Point", "coordinates": [ -77.169306089536605, 39.161781312209875 ] } },
{ "type": "Feature", "properties": { "ACCT": "481507", "Steet Name": "Riverside", "City": "CABI", "ZIP": 20818, "Licence Type": "ACC", "Lic Status": "LI", "Point X": 1265660.0, "Point Y": 475518.0 }, "geometry": { "type": "Point", "coordinates": [ -77.16416712403047, 38.972247298613468 ] } },
{ "type": "Feature", "properties": { "ACCT": "3191965", "Steet Name": "Thornley", "City": "BETH", "ZIP": 20817, "Licence Type": "ACC", "Lic Status": "EX", "Point X": 1266200.0, "Point Y": 479880.0 }, "geometry": { "type": "Point", "coordinates": [ -77.162295027924827, 38.984226726847517 ] } },
{ "type": "Feature", "properties": { "ACCT": "93344", "Steet Name": "Postoak", "City": "POTO", "ZIP": 20854, "Licence Type": "ACC", "Lic Status": "LI", "Point X": 1265657.0, "Point Y": 504599.0 }, "geometry": { "type": "Point", "coordinates": [ -77.16436184282621, 39.052094638104975 ] } },
{ "type": "Feature", "properties": { "ACCT": "1914126", "Steet Name": "Amity", "City": "GAIT", "ZIP": 20877, "Licence Type": "ACC", "Lic Status": "LI", "Point X": 1265388.0, "Point Y": 536787.0 }, "geometry": { "type": "Point", "coordinates": [ -77.165514576076745, 39.140469826797975 ] } },
{ "type": "Feature", "properties": { "ACCT": "101412", "Steet Name": "Charen", "City": "POTO", "ZIP": 20852, "Licence Type": "ACC", "Lic Status": "LI", "Point X": 1264952.0, "Point Y": 503812.0 }, "geometry": { "type": "Point", "coordinates": [ -77.166839296177329, 39.049930288468651 ] } },
{ "type": "Feature", "properties": { "ACCT": "874228", "Steet Name": "Peck", "City": "BETH", "ZIP": 20817, "Licence Type": "ACC", "Lic Status": "EX", "Point X": 1264097.0, "Point Y": 482944.0 }, "geometry": { "type": "Point", "coordinates": [ -77.169713311480649, 38.992629057160379 ] } },
{ "type": "Feature", "properties": { "ACCT": "1857617", "Steet Name": "Seven Locks", "City": "CABI", "ZIP": 20818, "Licence Type": "ACC", "Lic Status": "LI", "Point X": 1266546.0, "Point Y": 477002.0 }, "geometry": { "type": "Point", "coordinates": [ -77.161059954832098, 38.976326265591148 ] } },
{ "type": "Feature", "properties": { "ACCT": "3428513", "Steet Name": "Redland", "City": "ROCK", "ZIP": 20855, "Licence Type": "ACC", "Lic Status": "LI", "Point X": 1271553.0, "Point Y": 535743.0 }, "geometry": { "type": "Point", "coordinates": [ -77.143772953969631, 39.137632086321346 ] } },
{ "type": "Feature", "properties": { "ACCT": "484591", "Steet Name": "77th", "City": "CABI", "ZIP": 20818, "Licence Type": "ACC", "Lic Status": "EX", "Point X": 1267214.0, "Point Y": 476476.0 }, "geometry": { "type": "Point", "coordinates": [ -77.158707008995975, 38.974885234785283 ] } },
{ "type": "Feature", "properties": { "ACCT": "869596", "Steet Name": "Carteret", "City": "BETH", "ZIP": 20817, "Licence Type": "ACC", "Lic Status": "PE", "Point X": 1267915.0, "Point Y": 487840.0 }, "geometry": { "type": "Point", "coordinates": [ -77.156309693948472, 39.006090703060806 ] } },
{ "type": "Feature", "properties": { "ACCT": "2036380", "Steet Name": "Rolling Hill", "City": "LAYT", "ZIP": 20882, "Licence Type": "ACC", "Lic Status": "EX", "Point X": 1274152.0, "Point Y": 566675.0 }, "geometry": { "type": "Point", "coordinates": [ -77.134771068628382, 39.222569225422539 ] } },
{ "type": "Feature", "properties": { "ACCT": "1688817", "Steet Name": "Hipsley Mill", "City": "LAYT", "ZIP": 20882, "Licence Type": "ACC", "Lic Status": "PE", "Point X": 1273591.0, "Point Y": 578581.0 }, "geometry": { "type": "Point", "coordinates": [ -77.136814246347797, 39.255255277346066 ] } },
{ "type": "Feature", "properties": { "ACCT": "598208", "Steet Name": "Bellevue", "City": "BETH", "ZIP": 20814, "Licence Type": "ACC", "Lic Status": "LI", "Point X": 1284450.0, "Point Y": 490540.0 }, "geometry": { "type": "Point", "coordinates": [ -77.098132712593937, 39.013567340544739 ] } },
{ "type": "Feature", "properties": { "ACCT": "1447333", "Steet Name": "Dabney", "City": "ROCK", "ZIP": 20853, "Licence Type": "ACC", "Lic Status": "LI", "Point X": 1285593.0, "Point Y": 519796.0 }, "geometry": { "type": "Point", "coordinates": [ -77.094216302672891, 39.093897848588178 ] } },
{ "type": "Feature", "properties": { "ACCT": "1374998", "Steet Name": "Canterbury", "City": "ROCK", "ZIP": 20853, "Licence Type": "ACC", "Lic Status": "EX", "Point X": 1288629.0, "Point Y": 517389.0 }, "geometry": { "type": "Point", "coordinates": [ -77.083511574939862, 39.087297200480997 ] } },
{ "type": "Feature", "properties": { "ACCT": "1851223", "Steet Name": "Sundown", "City": "LAYT", "ZIP": 20882, "Licence Type": "ACC", "Lic Status": "LI", "Point X": 1286226.0, "Point Y": 565117.0 }, "geometry": { "type": "Point", "coordinates": [ -77.092147190882827, 39.218332858418123 ] } },
{ "type": "Feature", "properties": { "ACCT": "1165112", "Steet Name": "Bennion", "City": "SILV", "ZIP": 20906, "Licence Type": "ACC", "Lic Status": "LI", "Point X": 1287244.0, "Point Y": 504544.0 }, "geometry": { "type": "Point", "coordinates": [ -77.088347202146878, 39.052025664452792 ] } },
{ "type": "Feature", "properties": { "ACCT": "1320347", "Steet Name": "Dauphine", "City": "SILV", "ZIP": 20906, "Licence Type": "ACC", "Lic Status": "LI", "Point X": 1290436.0, "Point Y": 512788.0 }, "geometry": { "type": "Point", "coordinates": [ -77.077131729052311, 39.074668833098954 ] } },
{ "type": "Feature", "properties": { "ACCT": "752097", "Steet Name": "Marlin", "City": "ROCK", "ZIP": 20853, "Licence Type": "ACC", "Lic Status": "LI", "Point X": 1281769.0, "Point Y": 521367.0 }, "geometry": { "type": "Point", "coordinates": [ -77.10769621876149, 39.098199636174144 ] } },
{ "type": "Feature", "properties": { "ACCT": "597330", "Steet Name": "Parkhill", "City": "BETH", "ZIP": 20814, "Licence Type": "ACC", "Lic Status": "LI", "Point X": 1286015.0, "Point Y": 489444.0 }, "geometry": { "type": "Point", "coordinates": [ -77.092620935722579, 39.01056255234289 ] } },
{ "type": "Feature", "properties": { "ACCT": "1292671", "Steet Name": "Jeffry", "City": "SILV", "ZIP": 20906, "Licence Type": "ACC", "Lic Status": "LI", "Point X": 1290100.0, "Point Y": 509851.0 }, "geometry": { "type": "Point", "coordinates": [ -77.07830638936862, 39.066604055871878 ] } },
{ "type": "Feature", "properties": { "ACCT": "531671", "Steet Name": "Rossdhu", "City": "CHEV", "ZIP": 20815, "Licence Type": "ACC", "Lic Status": "LI", "Point X": 1293456.0, "Point Y": 481181.0 }, "geometry": { "type": "Point", "coordinates": [ -77.066413011690628, 38.987892636074221 ] } },
{ "type": "Feature", "properties": { "ACCT": "729560", "Steet Name": "Queen Elizabeth", "City": "OLNE", "ZIP": 20832, "Licence Type": "ACC", "Lic Status": "EX", "Point X": 1289702.0, "Point Y": 537832.0 }, "geometry": { "type": "Point", "coordinates": [ -77.079794296552407, 39.143428680383366 ] } },
{ "type": "Feature", "properties": { "ACCT": "729786", "Steet Name": "Queen Mary", "City": "OLNE", "ZIP": 20832, "Licence Type": "ACC", "Lic Status": "LI", "Point X": 1289832.0, "Point Y": 538797.0 }, "geometry": { "type": "Point", "coordinates": [ -77.079338895570046, 39.146078501903396 ] } },
{ "type": "Feature", "properties": { "ACCT": "728020", "Steet Name": "Howe", "City": "OLNE", "ZIP": 20832, "Licence Type": "ACC", "Lic Status": "LI", "Point X": 1291932.0, "Point Y": 539446.0 }, "geometry": { "type": "Point", "coordinates": [ -77.071936177124485, 39.147865176943867 ] } },
{ "type": "Feature", "properties": { "ACCT": "1315410", "Steet Name": "Georgia", "City": "SILV", "ZIP": 20906, "Licence Type": "ACC", "Lic Status": "LI", "Point X": 1294392.0, "Point Y": 511058.0 }, "geometry": { "type": "Point", "coordinates": [ -77.063192799510944, 39.069927197768806 ] } },
{ "type": "Feature", "properties": { "ACCT": "1247053", "Steet Name": "Crisfield", "City": "SILV", "ZIP": 20906, "Licence Type": "ACC", "Lic Status": "PE", "Point X": 1292018.0, "Point Y": 510657.0 }, "geometry": { "type": "Point", "coordinates": [ -77.071553370381011, 39.068821378690934 ] } },
{ "type": "Feature", "properties": { "ACCT": "1817100", "Steet Name": "Briars", "City": "BRKV", "ZIP": 20833, "Licence Type": "ACC", "Lic Status": "EX", "Point X": 1292570.0, "Point Y": 546724.0 }, "geometry": { "type": "Point", "coordinates": [ -77.069706151808859, 39.16784899562812 ] } },
{ "type": "Feature", "properties": { "ACCT": "645380", "Steet Name": "Western", "City": "CHEV", "ZIP": 20815, "Licence Type": "ACC", "Lic Status": "LI", "Point X": 1294677.0, "Point Y": 478214.0 }, "geometry": { "type": "Point", "coordinates": [ -77.062110267909347, 38.979748479489444 ] } },
{ "type": "Feature", "properties": { "ACCT": "1345930", "Steet Name": "Culver", "City": "KENS", "ZIP": 20895, "Licence Type": "ACC", "Lic Status": "LI", "Point X": 1289208.0, "Point Y": 489092.0 }, "geometry": { "type": "Point", "coordinates": [ -77.08138285521305, 39.009604423842191 ] } },
{ "type": "Feature", "properties": { "ACCT": "663388", "Steet Name": "Redwing", "City": "BETH", "ZIP": 20817, "Licence Type": "ACC", "Lic Status": "LI", "Point X": 1276325.0, "Point Y": 475746.0 }, "geometry": { "type": "Point", "coordinates": [ -77.126655599688604, 38.972919965195395 ] } },
{ "type": "Feature", "properties": { "ACCT": "580330", "Steet Name": "Hempstead", "City": "BETH", "ZIP": 20817, "Licence Type": "ACC", "Lic Status": "LI", "Point X": 1279302.0, "Point Y": 487363.0 }, "geometry": { "type": "Point", "coordinates": [ -77.116236349337427, 39.004827679098916 ] } },
{ "type": "Feature", "properties": { "ACCT": "634876", "Steet Name": "Belhaven", "City": "BETH", "ZIP": 20817, "Licence Type": "ACC", "Lic Status": "EX", "Point X": 1278087.0, "Point Y": 491751.0 }, "geometry": { "type": "Point", "coordinates": [ -77.120532283690778, 39.016871445810246 ] } },
{ "type": "Feature", "properties": { "ACCT": "690484", "Steet Name": "Alta Vista", "City": "BETH", "ZIP": 20817, "Licence Type": "ACC", "Lic Status": "LI", "Point X": 1281917.0, "Point Y": 489445.0 }, "geometry": { "type": "Point", "coordinates": [ -77.107042836179531, 39.010552993161596 ] } },
{ "type": "Feature", "properties": { "ACCT": "734987", "Steet Name": "Shremor", "City": "ROCK", "ZIP": 20855, "Licence Type": "ACC", "Lic Status": "LI", "Point X": 1279776.0, "Point Y": 546181.0 }, "geometry": { "type": "Point", "coordinates": [ -77.114828709810197, 39.166322636145978 ] } },
{ "type": "Feature", "properties": { "ACCT": "65142", "Steet Name": "Aurora", "City": "KENS", "ZIP": 20895, "Licence Type": "ACC", "Lic Status": "LI", "Point X": 1284465.0, "Point Y": 498630.0 }, "geometry": { "type": "Point", "coordinates": [ -77.098110521261702, 39.035779966193594 ] } },
{ "type": "Feature", "properties": { "ACCT": "661117", "Steet Name": "Westridge", "City": "BETH", "ZIP": 20816, "Licence Type": "ACC", "Lic Status": "LI", "Point X": 1282808.0, "Point Y": 470376.0 }, "geometry": { "type": "Point", "coordinates": [ -77.103830853729391, 38.958197936697246 ] } },
{ "type": "Feature", "properties": { "ACCT": "1384667", "Steet Name": "Arctic", "City": "ROCK", "ZIP": 20853, "Licence Type": "ACC", "Lic Status": "LI", "Point X": 1284778.0, "Point Y": 514681.0 }, "geometry": { "type": "Point", "coordinates": [ -77.09706869047055, 39.079851529393395 ] } },
{ "type": "Feature", "properties": { "ACCT": "441158", "Steet Name": "Glenbrook", "City": "BETH", "ZIP": 20814, "Licence Type": "ACC", "Lic Status": "LI", "Point X": 1283131.0, "Point Y": 481650.0 }, "geometry": { "type": "Point", "coordinates": [ -77.102739590443093, 38.989154106862273 ] } },
{ "type": "Feature", "properties": { "ACCT": "1389248", "Steet Name": "Arctic", "City": "ROCK", "ZIP": 20853, "Licence Type": "ACC", "Lic Status": "LI", "Point X": 1285325.0, "Point Y": 516949.0 }, "geometry": { "type": "Point", "coordinates": [ -77.095150111934018, 39.086080239410151 ] } },
{ "type": "Feature", "properties": { "ACCT": "543656", "Steet Name": "Highland", "City": "BETH", "ZIP": 20814, "Licence Type": "ACC", "Lic Status": "LI", "Point X": 1285677.0, "Point Y": 482357.0 }, "geometry": { "type": "Point", "coordinates": [ -77.093784820244238, 38.991102844065551 ] } },
{ "type": "Feature", "properties": { "ACCT": "441717", "Steet Name": "Battery", "City": "BETH", "ZIP": 20814, "Licence Type": "ACC", "Lic Status": "EX", "Point X": 1282843.0, "Point Y": 481694.0 }, "geometry": { "type": "Point", "coordinates": [ -77.10375300654465, 38.989274023502205 ] } },
{ "type": "Feature", "properties": { "ACCT": "598185", "Steet Name": "Rockville", "City": "BETH", "ZIP": 20814, "Licence Type": "ACC", "Lic Status": "LI", "Point X": 1284321.0, "Point Y": 490661.0 }, "geometry": { "type": "Point", "coordinates": [ -77.098587175247644, 39.013899187429487 ] } },
{ "type": "Feature", "properties": { "ACCT": "546717", "Steet Name": "Duvall", "City": "BETH", "ZIP": 20816, "Licence Type": "ACC", "Lic Status": "LI", "Point X": 1282727.0, "Point Y": 467319.0 }, "geometry": { "type": "Point", "coordinates": [ -77.104103444166867, 38.949804006384682 ] } },
{ "type": "Feature", "properties": { "ACCT": "1142942", "Steet Name": "Amherst", "City": "BETH", "ZIP": 20814, "Licence Type": "ACC", "Lic Status": "EX", "Point X": 1286406.0, "Point Y": 491724.0 }, "geometry": { "type": "Point", "coordinates": [ -77.091252928554695, 39.016823807727967 ] } },
{ "type": "Feature", "properties": { "ACCT": "596803", "Steet Name": "Asbury", "City": "BETH", "ZIP": 20814, "Licence Type": "ACC", "Lic Status": "LI", "Point X": 1284194.0, "Point Y": 490900.0 }, "geometry": { "type": "Point", "coordinates": [ -77.099035053802794, 39.014555029879894 ] } },
{ "type": "Feature", "properties": { "ACCT": "284232", "Steet Name": "Burnt Mills", "City": "SILV", "ZIP": 20901, "Licence Type": "ACC", "Lic Status": "LI", "Point X": 1313388.0, "Point Y": 498475.0 }, "geometry": { "type": "Point", "coordinates": [ -76.996287063514131, 39.035395444931581 ] } },
{ "type": "Feature", "properties": { "ACCT": "1076983", "Steet Name": "Sycamore", "City": "TAKO", "ZIP": 20912, "Licence Type": "ACC", "Lic Status": "EX", "Point X": 1311282.0, "Point Y": 476887.0 }, "geometry": { "type": "Point", "coordinates": [ -77.003698120411713, 38.976121352803659 ] } },
{ "type": "Feature", "properties": { "ACCT": "1324675", "Steet Name": "LeBaron", "City": "SILV", "ZIP": 20902, "Licence Type": "ACC", "Lic Status": "LI", "Point X": 1308250.0, "Point Y": 502753.0 }, "geometry": { "type": "Point", "coordinates": [ -77.014377673367434, 39.047140619951911 ] } },
{ "type": "Feature", "properties": { "ACCT": "1351656", "Steet Name": "Lawnsberry", "City": "SILV", "ZIP": 20901, "Licence Type": "ACC", "Lic Status": "LI", "Point X": 1312905.0, "Point Y": 490894.0 }, "geometry": { "type": "Point", "coordinates": [ -76.997988044663074, 39.014580447543302 ] } },
{ "type": "Feature", "properties": { "ACCT": "1066415", "Steet Name": "Carroll", "City": "TAKO", "ZIP": 20912, "Licence Type": "ACC", "Lic Status": "EX", "Point X": 1311439.0, "Point Y": 478653.0 }, "geometry": { "type": "Point", "coordinates": [ -77.003146078546592, 38.980970296249517 ] } },
{ "type": "Feature", "properties": { "ACCT": "3161376", "Steet Name": "Sycamore", "City": "TAKO", "ZIP": 20912, "Licence Type": "ACC", "Lic Status": "EX", "Point X": 1311388.0, "Point Y": 476745.0 }, "geometry": { "type": "Point", "coordinates": [ -77.003325241512655, 38.975731472697042 ] } },
{ "type": "Feature", "properties": { "ACCT": "335786", "Steet Name": "Brantford", "City": "SILV", "ZIP": 20904, "Licence Type": "ACC", "Lic Status": "PE", "Point X": 1314205.0, "Point Y": 507147.0 }, "geometry": { "type": "Point", "coordinates": [ -76.993408625144212, 39.059205782493876 ] } },
{ "type": "Feature", "properties": { "ACCT": "1066927", "Steet Name": "Maple", "City": "TAKO", "ZIP": 20912, "Licence Type": "ACC", "Lic Status": "EX", "Point X": 1311243.0, "Point Y": 481026.0 }, "geometry": { "type": "Point", "coordinates": [ -77.003835916782137, 38.987485842551912 ] } },
{ "type": "Feature", "properties": { "ACCT": "3145558", "Steet Name": "Sligo Creek", "City": "TAKO", "ZIP": 20912, "Licence Type": "ACC", "Lic Status": "EX", "Point X": 1311063.0, "Point Y": 480978.0 }, "geometry": { "type": "Point", "coordinates": [ -77.004469169197392, 38.987354026136373 ] } },
{ "type": "Feature", "properties": { "ACCT": "3328093", "Steet Name": "Heartfields", "City": "SILV", "ZIP": 20904, "Licence Type": "ACC", "Lic Status": "EX", "Point X": 1314949.0, "Point Y": 503063.0 }, "geometry": { "type": "Point", "coordinates": [ -76.990789961137367, 39.047992298713247 ] } },
{ "type": "Feature", "properties": { "ACCT": "3168641", "Steet Name": "Cole", "City": "TAKO", "ZIP": 20912, "Licence Type": "ACC", "Lic Status": "EX", "Point X": 1314605.0, "Point Y": 480857.0 }, "geometry": { "type": "Point", "coordinates": [ -76.992008066528129, 38.987021607930942 ] } },
{ "type": "Feature", "properties": { "ACCT": "3175305", "Steet Name": "Glenside", "City": "TAKO", "ZIP": 20912, "Licence Type": "ACC", "Lic Status": "EX", "Point X": 1314588.0, "Point Y": 479774.0 }, "geometry": { "type": "Point", "coordinates": [ -76.992068205139674, 38.984048010221642 ] } },
{ "type": "Feature", "properties": { "ACCT": "1398152", "Steet Name": "University", "City": "SILV", "ZIP": 20901, "Licence Type": "ACC", "Lic Status": "PE", "Point X": 1313691.0, "Point Y": 486070.0 }, "geometry": { "type": "Point", "coordinates": [ -76.995222642828608, 39.001335133768443 ] } },
{ "type": "Feature", "properties": { "ACCT": "280245", "Steet Name": "Nolcrest", "City": "SILV", "ZIP": 20903, "Licence Type": "ACC", "Lic Status": "LI", "Point X": 1314482.0, "Point Y": 496436.0 }, "geometry": { "type": "Point", "coordinates": [ -76.992436250670025, 39.029796816706522 ] } },
{ "type": "Feature", "properties": { "ACCT": "1359663", "Steet Name": "Chester", "City": "TAKO", "ZIP": 20912, "Licence Type": "ACC", "Lic Status": "PE", "Point X": 1313782.0, "Point Y": 482105.0 }, "geometry": { "type": "Point", "coordinates": [ -76.994903211093131, 38.990448411279168 ] } },
{ "type": "Feature", "properties": { "ACCT": "333583", "Steet Name": "Downs", "City": "SILV", "ZIP": 20904, "Licence Type": "ACC", "Lic Status": "LI", "Point X": 1317069.0, "Point Y": 507160.0 }, "geometry": { "type": "Point", "coordinates": [ -76.983322582622662, 39.059240473943021 ] } },
{ "type": "Feature", "properties": { "ACCT": "1027802", "Steet Name": "West", "City": "KENS", "ZIP": 20895, "Licence Type": "ACC", "Lic Status": "LI", "Point X": 1294182.0, "Point Y": 499726.0 }, "geometry": { "type": "Point", "coordinates": [ -77.063904518810872, 39.038812902919943 ] } },
{ "type": "Feature", "properties": { "ACCT": "1180538", "Steet Name": "Kingtree", "City": "SILV", "ZIP": 20902, "Licence Type": "ACC", "Lic Status": "LI", "Point X": 1295020.0, "Point Y": 503123.0 }, "geometry": { "type": "Point", "coordinates": [ -77.060962200324397, 39.048141528821276 ] } },
{ "type": "Feature", "properties": { "ACCT": "1185427", "Steet Name": "Veirs Mill", "City": "SILV", "ZIP": 20902, "Licence Type": "ACC", "Lic Status": "LI", "Point X": 1295641.0, "Point Y": 500964.0 }, "geometry": { "type": "Point", "coordinates": [ -77.05877069567326, 39.042214740404965 ] } },
{ "type": "Feature", "properties": { "ACCT": "1099756", "Steet Name": "Eccleston", "City": "SILV", "ZIP": 20902, "Licence Type": "ACC", "Lic Status": "PE", "Point X": 1298014.0, "Point Y": 493833.0 }, "geometry": { "type": "Point", "coordinates": [ -77.050401930269203, 39.022639190974104 ] } },
{ "type": "Feature", "properties": { "ACCT": "1104490", "Steet Name": "Homestead", "City": "SILV", "ZIP": 20902, "Licence Type": "ACC", "Lic Status": "EX", "Point X": 1297655.0, "Point Y": 494837.0 }, "geometry": { "type": "Point", "coordinates": [ -77.051667556942434, 39.025395307955876 ] } },
{ "type": "Feature", "properties": { "ACCT": "1393651", "Steet Name": "Channing", "City": "SILV", "ZIP": 20902, "Licence Type": "ACC", "Lic Status": "LI", "Point X": 1300731.0, "Point Y": 501453.0 }, "geometry": { "type": "Point", "coordinates": [ -77.040850496502259, 39.043565000533576 ] } },
{ "type": "Feature", "properties": { "ACCT": "2412831", "Steet Name": "Monroe", "City": "SILV", "ZIP": 20910, "Licence Type": "ACC", "Lic Status": "LI", "Point X": 1298970.0, "Point Y": 489197.0 }, "geometry": { "type": "Point", "coordinates": [ -77.047028546087745, 39.009911573269761 ] } },
{ "type": "Feature", "properties": { "ACCT": "1003180", "Steet Name": "Stanton", "City": "SILV", "ZIP": 20910, "Licence Type": "ACC", "Lic Status": "LI", "Point X": 1295385.0, "Point Y": 490287.0 }, "geometry": { "type": "Point", "coordinates": [ -77.059647462983293, 39.012898627077234 ] } },
{ "type": "Feature", "properties": { "ACCT": "1394963", "Steet Name": "Marymont", "City": "SILV", "ZIP": 20906, "Licence Type": "ACC", "Lic Status": "EX", "Point X": 1298946.0, "Point Y": 526213.0 }, "geometry": { "type": "Point", "coordinates": [ -77.047180333159559, 39.111544984865148 ] } },
{ "type": "Feature", "properties": { "ACCT": "1431246", "Steet Name": "Woodland", "City": "SILV", "ZIP": 20910, "Licence Type": "ACC", "Lic Status": "LI", "Point X": 1301756.0, "Point Y": 488284.0 }, "geometry": { "type": "Point", "coordinates": [ -77.037222682501508, 39.007408284114121 ] } },
{ "type": "Feature", "properties": { "ACCT": "1396528", "Steet Name": "Bucknell", "City": "SILV", "ZIP": 20902, "Licence Type": "ACC", "Lic Status": "EX", "Point X": 1299258.0, "Point Y": 502263.0 }, "geometry": { "type": "Point", "coordinates": [ -77.046038199610123, 39.045787070882433 ] } },
{ "type": "Feature", "properties": { "ACCT": "1417963", "Steet Name": "Luzerne", "City": "SILV", "ZIP": 20910, "Licence Type": "ACC", "Lic Status": "LI", "Point X": 1299704.0, "Point Y": 487837.0 }, "geometry": { "type": "Point", "coordinates": [ -77.044443106880692, 39.006178438051315 ] } },
{ "type": "Feature", "properties": { "ACCT": "1868382", "Steet Name": "Town Line", "City": "SILV", "ZIP": 20906, "Licence Type": "ACC", "Lic Status": "EX", "Point X": 1301267.0, "Point Y": 514545.0 }, "geometry": { "type": "Point", "coordinates": [ -77.038982985790483, 39.079511857209084 ] } },
{ "type": "Feature", "properties": { "ACCT": "1076403", "Steet Name": "Cedar", "City": "TAKO", "ZIP": 20912, "Licence Type": "ACC", "Lic Status": "EX", "Point X": 1308663.0, "Point Y": 478024.0 }, "geometry": { "type": "Point", "coordinates": [ -77.012911159444272, 38.979242573643567 ] } },
{ "type": "Feature", "properties": { "ACCT": "1367960", "Steet Name": "Nicholas", "City": "SILV", "ZIP": 20902, "Licence Type": "ACC", "Lic Status": "LI", "Point X": 1302336.0, "Point Y": 499951.0 }, "geometry": { "type": "Point", "coordinates": [ -77.035197435432238, 39.039442832314883 ] } },
{ "type": "Feature", "properties": { "ACCT": "1081455", "Steet Name": "Spruce", "City": "TAKO", "ZIP": 20912, "Licence Type": "ACC", "Lic Status": "EX", "Point X": 1309459.0, "Point Y": 476976.0 }, "geometry": { "type": "Point", "coordinates": [ -77.010110655665486, 38.976365342705925 ] } },
{ "type": "Feature", "properties": { "ACCT": "987456", "Steet Name": "Richmond", "City": "SILV", "ZIP": 20910, "Licence Type": "ACC", "Lic Status": "PE", "Point X": 1306041.0, "Point Y": 481571.0 }, "geometry": { "type": "Point", "coordinates": [ -77.022137615079401, 38.988980220655122 ] } },
{ "type": "Feature", "properties": { "ACCT": "2829182", "Steet Name": "Briggs", "City": "SILV", "ZIP": 20906, "Licence Type": "ACC", "Lic Status": "EX", "Point X": 1299043.0, "Point Y": 510940.0 }, "geometry": { "type": "Point", "coordinates": [ -77.04681087997028, 39.069610904259108 ] } },
{ "type": "Feature", "properties": { "ACCT": "990625", "Steet Name": "Ritchie", "City": "SILV", "ZIP": 20910, "Licence Type": "ACC", "Lic Status": "EX", "Point X": 1308511.0, "Point Y": 481514.0 }, "geometry": { "type": "Point", "coordinates": [ -77.013447659528566, 38.988825037237781 ] } },
{ "type": "Feature", "properties": { "ACCT": "1079337", "Steet Name": "Holly", "City": "TAKO", "ZIP": 20912, "Licence Type": "ACC", "Lic Status": "EX", "Point X": 1307846.0, "Point Y": 477829.0 }, "geometry": { "type": "Point", "coordinates": [ -77.015785008148157, 38.978706807290244 ] } },
{ "type": "Feature", "properties": { "ACCT": "1073956", "Steet Name": "Holly", "City": "TAKO", "ZIP": 20912, "Licence Type": "ACC", "Lic Status": "EX", "Point X": 1307872.0, "Point Y": 478364.0 }, "geometry": { "type": "Point", "coordinates": [ -77.015693871968992, 38.980175775198902 ] } },
{ "type": "Feature", "properties": { "ACCT": "1418012", "Steet Name": "16th", "City": "SILV", "ZIP": 20910, "Licence Type": "ACC", "Lic Status": "EX", "Point X": 1300700.0, "Point Y": 487791.0 }, "geometry": { "type": "Point", "coordinates": [ -77.040938072603581, 39.006053414911833 ] } },
{ "type": "Feature", "properties": { "ACCT": "1059567", "Steet Name": "Holly", "City": "TAKO", "ZIP": 20912, "Licence Type": "ACC", "Lic Status": "EX", "Point X": 1307746.0, "Point Y": 477652.0 }, "geometry": { "type": "Point", "coordinates": [ -77.016136666228505, 38.978220768269807 ] } },
{ "type": "Feature", "properties": { "ACCT": "1077247", "Steet Name": "Cedar", "City": "TAKO", "ZIP": 20912, "Licence Type": "ACC", "Lic Status": "EX", "Point X": 1308453.0, "Point Y": 477954.0 }, "geometry": { "type": "Point", "coordinates": [ -77.013649841276916, 38.979050289950337 ] } },
{ "type": "Feature", "properties": { "ACCT": "1063092", "Steet Name": "Cedar", "City": "TAKO", "ZIP": 20912, "Licence Type": "ACC", "Lic Status": "EX", "Point X": 1308548.0, "Point Y": 477846.0 }, "geometry": { "type": "Point", "coordinates": [ -77.013315604516492, 38.978753791609968 ] } },
{ "type": "Feature", "properties": { "ACCT": "2171643", "Steet Name": "Heather Crest", "City": "SILV", "ZIP": 20902, "Licence Type": "ACC", "Lic Status": "LI", "Point X": 1303157.0, "Point Y": 501746.0 }, "geometry": { "type": "Point", "coordinates": [ -77.03230919201124, 39.044372151960438 ] } },
{ "type": "Feature", "properties": { "ACCT": "1351350", "Steet Name": "Loxford", "City": "SILV", "ZIP": 20901, "Licence Type": "ACC", "Lic Status": "LI", "Point X": 1306748.0, "Point Y": 499382.0 }, "geometry": { "type": "Point", "coordinates": [ -77.019663753363105, 39.037884182239722 ] } },
{ "type": "Feature", "properties": { "ACCT": "1075498", "Steet Name": "Birch", "City": "TAKO", "ZIP": 20912, "Licence Type": "ACC", "Lic Status": "EX", "Point X": 1308418.0, "Point Y": 478036.0 }, "geometry": { "type": "Point", "coordinates": [ -77.013773004239496, 38.979275423864792 ] } },
{ "type": "Feature", "properties": { "ACCT": "1030981", "Steet Name": "St Andrews", "City": "SILV", "ZIP": 20901, "Licence Type": "ACC", "Lic Status": "PE", "Point X": 1306414.0, "Point Y": 489049.0 }, "geometry": { "type": "Point", "coordinates": [ -77.020831334243042, 39.009512807267726 ] } },
{ "type": "Feature", "properties": { "ACCT": "951511", "Steet Name": "Gabel", "City": "SILV", "ZIP": 20901, "Licence Type": "ACC", "Lic Status": "PE", "Point X": 1305005.0, "Point Y": 497706.0 }, "geometry": { "type": "Point", "coordinates": [ -77.025798500723297, 39.033281233086257 ] } },
{ "type": "Feature", "properties": { "ACCT": "1059556", "Steet Name": "Park", "City": "TAKO", "ZIP": 20912, "Licence Type": "ACC", "Lic Status": "EX", "Point X": 1309609.0, "Point Y": 477969.0 }, "geometry": { "type": "Point", "coordinates": [ -77.009583387474791, 38.97909187952699 ] } },
{ "type": "Feature", "properties": { "ACCT": "1367470", "Steet Name": "Hannes", "City": "SILV", "ZIP": 20901, "Licence Type": "ACC", "Lic Status": "LI", "Point X": 1308846.0, "Point Y": 498552.0 }, "geometry": { "type": "Point", "coordinates": [ -77.012277130423684, 39.035606277227089 ] } },
{ "type": "Feature", "properties": { "ACCT": "1063833", "Steet Name": "Grant", "City": "TAKO", "ZIP": 20912, "Licence Type": "ACC", "Lic Status": "EX", "Point X": 1310026.0, "Point Y": 478141.0 }, "geometry": { "type": "Point", "coordinates": [ -77.008116560182359, 38.979564252902335 ] } },
{ "type": "Feature", "properties": { "ACCT": "1077316", "Steet Name": "Grant", "City": "TAKO", "ZIP": 20912, "Licence Type": "ACC", "Lic Status": "EX", "Point X": 1310077.0, "Point Y": 478418.0 }, "geometry": { "type": "Point", "coordinates": [ -77.007937240991822, 38.980324827204129 ] } },
{ "type": "Feature", "properties": { "ACCT": "1062543", "Steet Name": "Sherman", "City": "TAKO", "ZIP": 20912, "Licence Type": "ACC", "Lic Status": "EX", "Point X": 1310536.0, "Point Y": 479046.0 }, "geometry": { "type": "Point", "coordinates": [ -77.006322741552182, 38.982049231805277 ] } },
{ "type": "Feature", "properties": { "ACCT": "1041302", "Steet Name": "Silver Spring", "City": "SILV", "ZIP": 20910, "Licence Type": "ACC", "Lic Status": "EX", "Point X": 1306182.0, "Point Y": 482700.0 }, "geometry": { "type": "Point", "coordinates": [ -77.021642492168496, 38.992080214570919 ] } },
{ "type": "Feature", "properties": { "ACCT": "990658", "Steet Name": "Chesapeake", "City": "SILV", "ZIP": 20910, "Licence Type": "ACC", "Lic Status": "EX", "Point X": 1307654.0, "Point Y": 481458.0 }, "geometry": { "type": "Point", "coordinates": [ -77.016462705099613, 38.988670892204304 ] } },
{ "type": "Feature", "properties": { "ACCT": "1377104", "Steet Name": "Reading", "City": "SILV", "ZIP": 20901, "Licence Type": "ACC", "Lic Status": "LI", "Point X": 1310508.0, "Point Y": 485004.0 }, "geometry": { "type": "Point", "coordinates": [ -77.006422715872688, 38.998408138950118 ] } },
{ "type": "Feature", "properties": { "ACCT": "1042853", "Steet Name": "Pershing", "City": "SILV", "ZIP": 20910, "Licence Type": "ACC", "Lic Status": "EX", "Point X": 1306014.0, "Point Y": 485019.0 }, "geometry": { "type": "Point", "coordinates": [ -77.022235560905528, 38.998447387635714 ] } },
{ "type": "Feature", "properties": { "ACCT": "1047228", "Steet Name": "Cedar", "City": "SILV", "ZIP": 20910, "Licence Type": "ACC", "Lic Status": "LI", "Point X": 1305898.0, "Point Y": 484880.0 }, "geometry": { "type": "Point", "coordinates": [ -77.0226436037035, 38.998065656946657 ] } },
{ "type": "Feature", "properties": { "ACCT": "1048052", "Steet Name": "Silver Spring", "City": "SILV", "ZIP": 20910, "Licence Type": "ACC", "Lic Status": "PE", "Point X": 1306479.0, "Point Y": 482736.0 }, "geometry": { "type": "Point", "coordinates": [ -77.020597573261639, 38.992179248586638 ] } },
{ "type": "Feature", "properties": { "ACCT": "1064006", "Steet Name": "Sligo Creek", "City": "TAKO", "ZIP": 20912, "Licence Type": "ACC", "Lic Status": "EX", "Point X": 1310685.0, "Point Y": 481961.0 }, "geometry": { "type": "Point", "coordinates": [ -77.005799233862746, 38.990052996990585 ] } },
{ "type": "Feature", "properties": { "ACCT": "913913", "Steet Name": "Comus", "City": "CLAR", "ZIP": 20871, "Licence Type": "ACC", "Lic Status": "LI", "Point X": 1217166.0, "Point Y": 575667.0 }, "geometry": { "type": "Point", "coordinates": [ -77.336033721790585, 39.246853617311302 ] } },
{ "type": "Feature", "properties": { "ACCT": "595411", "Steet Name": "Ridge", "City": "BETH", "ZIP": 20817, "Licence Type": "ACC", "Lic Status": "LI", "Point X": 1277010.0, "Point Y": 485843.0 }, "geometry": { "type": "Point", "coordinates": [ -77.1242945416992, 39.000645930720786 ] } },
{ "type": "Feature", "properties": { "ACCT": "1068686", "Steet Name": "Maple", "City": "TAKO", "ZIP": 20912, "Licence Type": "ACC", "Lic Status": "EX", "Point X": 1311142.0, "Point Y": 481556.0 }, "geometry": { "type": "Point", "coordinates": [ -77.004191331996864, 38.988941054810134 ] } },
{ "type": "Feature", "properties": { "ACCT": "1734697", "Steet Name": "River", "City": "POTO", "ZIP": 20854, "Licence Type": "ACC", "Lic Status": "LI", "Point X": 1234361.0, "Point Y": 504840.0 }, "geometry": { "type": "Point", "coordinates": [ -77.274566784910945, 39.052549764255822 ] } },
{ "type": "Feature", "properties": { "ACCT": "709881", "Steet Name": "Mt Everest", "City": "SILV", "ZIP": 20906, "Licence Type": "ACC", "Lic Status": "LI", "Point X": 1295816.0, "Point Y": 528801.0 }, "geometry": { "type": "Point", "coordinates": [ -77.058217055306585, 39.118645707943372 ] } },
{ "type": "Feature", "properties": { "ACCT": "594360", "Steet Name": "Lowell", "City": "BETH", "ZIP": 20817, "Licence Type": "ACC", "Lic Status": "LI", "Point X": 1276727.0, "Point Y": 485450.0 }, "geometry": { "type": "Point", "coordinates": [ -77.12528845330111, 38.999565809531177 ] } },
{ "type": "Feature", "properties": { "ACCT": "1330621", "Steet Name": "Charlton", "City": "SILV", "ZIP": 20902, "Licence Type": "ACC", "Lic Status": "LI", "Point X": 1308295.0, "Point Y": 501615.0 }, "geometry": { "type": "Point", "coordinates": [ -77.014218601424261, 39.04401606382384 ] } },
{ "type": "Feature", "properties": { "ACCT": "2265525", "Steet Name": "Hourglass", "City": "GERM", "ZIP": 20876, "Licence Type": "ACC", "Lic Status": "EX", "Point X": 1243919.0, "Point Y": 558046.0 }, "geometry": { "type": "Point", "coordinates": [ -77.241405470758082, 39.198706810736631 ] } },
{ "type": "Feature", "properties": { "ACCT": "289198", "Steet Name": "New Hampshire", "City": "SILV", "ZIP": 20903, "Licence Type": "ACC", "Lic Status": "EX", "Point X": 1318023.0, "Point Y": 494538.0 }, "geometry": { "type": "Point", "coordinates": [ -76.979972669158869, 39.02458403958336 ] } },
{ "type": "Feature", "properties": { "ACCT": "468226", "Steet Name": "Brookville", "City": "CHEV", "ZIP": 20815, "Licence Type": "ACC", "Lic Status": "LI", "Point X": 1292034.0, "Point Y": 479027.0 }, "geometry": { "type": "Point", "coordinates": [ -77.071409870232344, 38.98197543461032 ] } },
{ "type": "Feature", "properties": { "ACCT": "502304", "Steet Name": "Wiscasset", "City": "BETH", "ZIP": 20816, "Licence Type": "ACC", "Lic Status": "PE", "Point X": 1275632.0, "Point Y": 473496.0 }, "geometry": { "type": "Point", "coordinates": [ -77.129081961944749, 38.966739443278854 ] } },
{ "type": "Feature", "properties": { "ACCT": "1019403", "Steet Name": "Dupont", "City": "KENS", "ZIP": 20895, "Licence Type": "ACC", "Lic Status": "LI", "Point X": 1291732.0, "Point Y": 496994.0 }, "geometry": { "type": "Point", "coordinates": [ -77.072522470539596, 39.031306683168516 ] } },
{ "type": "Feature", "properties": { "ACCT": "448467", "Steet Name": "Maryland", "City": "BETH", "ZIP": 20816, "Licence Type": "ACC", "Lic Status": "PE", "Point X": 1278061.0, "Point Y": 465553.0 }, "geometry": { "type": "Point", "coordinates": [ -77.120502079708444, 38.94493929202816 ] } },
{ "type": "Feature", "properties": { "ACCT": "271651", "Steet Name": "Norwood", "City": "SILV", "ZIP": 20905, "Licence Type": "ACC", "Lic Status": "EX", "Point X": 1306531.0, "Point Y": 530584.0 }, "geometry": { "type": "Point", "coordinates": [ -77.020452335553131, 39.123553831404571 ] } },
{ "type": "Feature", "properties": { "ACCT": "2213954", "Steet Name": "Wellesley", "City": "GLEN", "ZIP": 20812, "Licence Type": "ACC", "Lic Status": "LI", "Point X": 1271226.0, "Point Y": 475260.0 }, "geometry": { "type": "Point", "coordinates": [ -77.14458807093024, 38.971564749408486 ] } },
{ "type": "Feature", "properties": { "ACCT": "3004298", "Steet Name": "Stratford Garden", "City": "SILV", "ZIP": 20904, "Licence Type": "ACC", "Lic Status": "EX", "Point X": 1319936.0, "Point Y": 508898.0 }, "geometry": { "type": "Point", "coordinates": [ -76.973224183583099, 39.06401056215342 ] } },
{ "type": "Feature", "properties": { "ACCT": "338200", "Steet Name": "Broadmore", "City": "SILV", "ZIP": 20904, "Licence Type": "ACC", "Lic Status": "LI", "Point X": 1315156.0, "Point Y": 511287.0 }, "geometry": { "type": "Point", "coordinates": [ -76.990057938636483, 39.07057258119432 ] } },
{ "type": "Feature", "properties": { "ACCT": "3134885", "Steet Name": "Mc Knew", "City": "BURT", "ZIP": 20866, "Licence Type": "ACC", "Lic Status": "PE", "Point X": 1334646.0, "Point Y": 523579.0 }, "geometry": { "type": "Point", "coordinates": [ -76.921372549789979, 39.104296103628016 ] } },
{ "type": "Feature", "properties": { "ACCT": "286242", "Steet Name": "Gatewood", "City": "SILV", "ZIP": 20903, "Licence Type": "ACC", "Lic Status": "LI", "Point X": 1320594.0, "Point Y": 494908.0 }, "geometry": { "type": "Point", "coordinates": [ -76.970922469042307, 39.025598044439185 ] } },
{ "type": "Feature", "properties": { "ACCT": "C000208", "Steet Name": "Daleshire", "City": "BURT", "ZIP": 20866, "Licence Type": "ACC", "Lic Status": "EX", "Point X": 1331765.0, "Point Y": 516529.0 }, "geometry": { "type": "Point", "coordinates": [ -76.931543511214642, 39.084945709267181 ] } },
{ "type": "Feature", "properties": { "ACCT": "2014612", "Steet Name": "Cabin Creek", "City": "BURT", "ZIP": 20866, "Licence Type": "ACC", "Lic Status": "LI", "Point X": 1325226.0, "Point Y": 521265.0 }, "geometry": { "type": "Point", "coordinates": [ -76.954571671867868, 39.097960274045356 ] } },
{ "type": "Feature", "properties": { "ACCT": "337397", "Steet Name": "Parallel", "City": "SILV", "ZIP": 20904, "Licence Type": "ACC", "Lic Status": "EX", "Point X": 1322351.0, "Point Y": 515644.0 }, "geometry": { "type": "Point", "coordinates": [ -76.964709616400341, 39.082530498063548 ] } },
{ "type": "Feature", "properties": { "ACCT": "364232", "Steet Name": "Bellevue", "City": "SILV", "ZIP": 20904, "Licence Type": "ACC", "Lic Status": "EX", "Point X": 1328362.0, "Point Y": 508053.0 }, "geometry": { "type": "Point", "coordinates": [ -76.943550518287879, 39.061679932244722 ] } },
{ "type": "Feature", "properties": { "ACCT": "768583", "Steet Name": "Alden", "City": "GAIT", "ZIP": 20877, "Licence Type": "ACC", "Lic Status": "LI", "Point X": 1259319.0, "Point Y": null }, "geometry": null },
{ "type": "Feature", "properties": { "ACCT": "3179176", "Steet Name": "Ethan Allen", "City": "TAKO", "ZIP": 20912, "Licence Type": "ACC", "Lic Status": "PE", "Point X": 1312529.0, "Point Y": 477470.0 }, "geometry": { "type": "Point", "coordinates": [ -76.99931171533423, 38.977722159837839 ] } },
{ "type": "Feature", "properties": { "ACCT": "1354375", "Steet Name": "Indian Spring", "City": "SILV", "ZIP": 20901, "Licence Type": "ACC", "Lic Status": "EX", "Point X": 1311389.0, "Point Y": 490629.0 }, "geometry": { "type": "Point", "coordinates": [ -77.003323501982536, 39.013852809388403 ] } },
{ "type": "Feature", "properties": { "ACCT": "1075181", "Steet Name": "Manor", "City": "TAKO", "ZIP": 20912, "Licence Type": "ACC", "Lic Status": "EX", "Point X": 1311068.0, "Point Y": 477722.0 }, "geometry": { "type": "Point", "coordinates": [ -77.004451020137523, 38.978413996641834 ] } },
{ "type": "Feature", "properties": { "ACCT": "1241581", "Steet Name": "Randolph", "City": "SILV", "ZIP": 20902, "Licence Type": "ACC", "Lic Status": "LI", "Point X": 1291960.0, "Point Y": 506847.0 }, "geometry": { "type": "Point", "coordinates": [ -77.071747107431278, 39.058360286631952 ] } },
{ "type": "Feature", "properties": { "ACCT": "1382511", "Steet Name": "Loree", "City": "ROCK", "ZIP": 20853, "Licence Type": "ACC", "Lic Status": "LI", "Point X": 1285460.0, "Point Y": 515672.0 }, "geometry": { "type": "Point", "coordinates": [ -77.094669843005391, 39.082574433821655 ] } },
{ "type": "Feature", "properties": { "ACCT": "505502", "Steet Name": "Wapakoneta", "City": "BETH", "ZIP": 20816, "Licence Type": "ACC", "Lic Status": "EX", "Point X": 1277416.0, "Point Y": 471965.0 }, "geometry": { "type": "Point", "coordinates": [ -77.1228002343247, 38.962542508301084 ] } },
{ "type": "Feature", "properties": { "ACCT": "134183", "Steet Name": "Pilgrims", "City": "ROCK", "ZIP": 20855, "Licence Type": "ACC", "Lic Status": "PE", "Point X": 1274924.0, "Point Y": 535952.0 }, "geometry": { "type": "Point", "coordinates": [ -77.131889419073005, 39.138219892941343 ] } },
{ "type": "Feature", "properties": { "ACCT": "1119981", "Steet Name": "Bucknell", "City": "SILV", "ZIP": 20902, "Licence Type": "ACC", "Lic Status": "PE", "Point X": 1299650.0, "Point Y": 496501.0 }, "geometry": { "type": "Point", "coordinates": [ -77.04464804667623, 39.029967014369369 ] } },
{ "type": "Feature", "properties": { "ACCT": "1225535", "Steet Name": "Farthing", "City": "SILV", "ZIP": 20906, "Licence Type": "ACC", "Lic Status": "LI", "Point X": 1292795.0, "Point Y": 508395.0 }, "geometry": { "type": "Point", "coordinates": [ -77.068810666237326, 39.062612337376862 ] } },
{ "type": "Feature", "properties": { "ACCT": "534253", "Steet Name": "Greentree", "City": "BETH", "ZIP": 20817, "Licence Type": "ACC", "Lic Status": "LI", "Point X": 1280362.0, "Point Y": 485785.0 }, "geometry": { "type": "Point", "coordinates": [ -77.112499399266099, 39.000498616906576 ] } },
{ "type": "Feature", "properties": { "ACCT": "984635", "Steet Name": "Mississippi", "City": "SILV", "ZIP": 20910, "Licence Type": "ACC", "Lic Status": "EX", "Point X": 1308654.0, "Point Y": 481985.0 }, "geometry": { "type": "Point", "coordinates": [ -77.012944794618363, 38.990118321414258 ] } },
{ "type": "Feature", "properties": { "ACCT": "1080952", "Steet Name": "Tulip", "City": "TAKO", "ZIP": 20912, "Licence Type": "ACC", "Lic Status": "EX", "Point X": 1308353.0, "Point Y": 477393.0 }, "geometry": { "type": "Point", "coordinates": [ -77.014001308440584, 38.977509903901421 ] } },
{ "type": "Feature", "properties": { "ACCT": "74658", "Steet Name": "Macon", "City": "ROCK", "ZIP": 20852, "Licence Type": "ACC", "Lic Status": "EX", "Point X": 1285197.0, "Point Y": 504281.0 }, "geometry": { "type": "Point", "coordinates": [ -77.095554339722327, 39.051297892730169 ] } },
{ "type": "Feature", "properties": { "ACCT": "1290661", "Steet Name": "Greenly", "City": "SILV", "ZIP": 20906, "Licence Type": "ACC", "Lic Status": "EX", "Point X": 1289950.0, "Point Y": 507826.0 }, "geometry": { "type": "Point", "coordinates": [ -77.078828534449599, 39.061043739239643 ] } },
{ "type": "Feature", "properties": { "ACCT": "1523995", "Steet Name": "Thornapple", "City": "CHEV", "ZIP": 20815, "Licence Type": "ACC", "Lic Status": "LI", "Point X": 1291755.0, "Point Y": 479265.0 }, "geometry": { "type": "Point", "coordinates": [ -77.072392012010567, 38.982628309989146 ] } },
{ "type": "Feature", "properties": { "ACCT": "637471", "Steet Name": "Rockhurst", "City": "BETH", "ZIP": 20817, "Licence Type": "ACC", "Lic Status": "EX", "Point X": 1276902.0, "Point Y": 491243.0 }, "geometry": { "type": "Point", "coordinates": [ -77.124700523849484, 39.015472266149331 ] } },
{ "type": "Feature", "properties": { "ACCT": "852222", "Steet Name": "Persimmon Tree", "City": "POTO", "ZIP": 20854, "Licence Type": "ACC", "Lic Status": "LI", "Point X": 1254923.0, "Point Y": 490388.0 }, "geometry": { "type": "Point", "coordinates": [ -77.202048717234561, 39.013016702407768 ] } },
{ "type": "Feature", "properties": { "ACCT": "444733", "Steet Name": "Bradley", "City": "CHEV", "ZIP": 20815, "Licence Type": "ACC", "Lic Status": "PE", "Point X": 1282992.0, "Point Y": 477262.0 }, "geometry": { "type": "Point", "coordinates": [ -77.103211165459186, 38.977105511284257 ] } },
{ "type": "Feature", "properties": { "ACCT": "1284693", "Steet Name": "Lantern", "City": "SILV", "ZIP": 20902, "Licence Type": "ACC", "Lic Status": "PE", "Point X": 1289826.0, "Point Y": 502597.0 }, "geometry": { "type": "Point", "coordinates": [ -77.079249244798604, 39.046686354139517 ] } },
{ "type": "Feature", "properties": { "ACCT": "1199481", "Steet Name": "Drumm", "City": "KENS", "ZIP": 20895, "Licence Type": "ACC", "Lic Status": "LI", "Point X": 1294063.0, "Point Y": 497327.0 }, "geometry": { "type": "Point", "coordinates": [ -77.06431752552983, 39.032225791598698 ] } },
{ "type": "Feature", "properties": { "ACCT": "559880", "Steet Name": "Massachusetts", "City": "BETH", "ZIP": 20816, "Licence Type": "ACC", "Lic Status": "LI", "Point X": 1279112.0, "Point Y": 471335.0 }, "geometry": { "type": "Point", "coordinates": [ -77.116832768933136, 38.9608188174087 ] } },
{ "type": "Feature", "properties": { "ACCT": "2668495", "Steet Name": "Montgomery", "City": "SILV", "ZIP": 20910, "Licence Type": "ACC", "Lic Status": "LI", "Point X": 1298689.0, "Point Y": 488465.0 }, "geometry": { "type": "Point", "coordinates": [ -77.048016092545694, 39.007901323430232 ] } },
{ "type": "Feature", "properties": { "ACCT": "3706406", "Steet Name": "MacArthur", "City": "BETH", "ZIP": 20816, "Licence Type": "ACC", "Lic Status": "EX", "Point X": 1275523.0, "Point Y": 470099.0 }, "geometry": { "type": "Point", "coordinates": [ -77.129448382652399, 38.957411814575345 ] } },
{ "type": "Feature", "properties": { "ACCT": "1177963", "Steet Name": "Fenimore", "City": "SILV", "ZIP": 20902, "Licence Type": "ACC", "Lic Status": "EX", "Point X": 1295400.0, "Point Y": 501916.0 }, "geometry": { "type": "Point", "coordinates": [ -77.059621402099026, 39.044828192369742 ] } },
{ "type": "Feature", "properties": { "ACCT": "1071296", "Steet Name": "Davis", "City": "TAKO", "ZIP": 20912, "Licence Type": "ACC", "Lic Status": "EX", "Point X": 1313158.0, "Point Y": 479793.0 }, "geometry": { "type": "Point", "coordinates": [ -76.997098864588125, 38.984100411654509 ] } },
{ "type": "Feature", "properties": { "ACCT": "2829205", "Steet Name": "Briggs", "City": "SILV", "ZIP": 20906, "Licence Type": "ACC", "Lic Status": "EX", "Point X": 1299262.0, "Point Y": 510945.0 }, "geometry": { "type": "Point", "coordinates": [ -77.046039532636854, 39.069624938339302 ] } },
{ "type": "Feature", "properties": { "ACCT": "939074", "Steet Name": "Oak", "City": "DAMA", "ZIP": 20872, "Licence Type": "ACC", "Lic Status": "LI", "Point X": 1249371.0, "Point Y": 583467.0 }, "geometry": { "type": "Point", "coordinates": [ -77.222386246238486, 39.268539040402217 ] } },
{ "type": "Feature", "properties": { "ACCT": "1061140", "Steet Name": "Jackson", "City": "TAKO", "ZIP": 20912, "Licence Type": "ACC", "Lic Status": "EX", "Point X": 1312312.0, "Point Y": 478562.0 }, "geometry": { "type": "Point", "coordinates": [ -77.000075044819226, 38.980720478868854 ] } },
{ "type": "Feature", "properties": { "ACCT": "1250528", "Steet Name": "Randolph", "City": "SILV", "ZIP": 20902, "Licence Type": "ACC", "Lic Status": "PE", "Point X": 1297310.0, "Point Y": 506736.0 }, "geometry": { "type": "Point", "coordinates": [ -77.052906226609522, 39.058065546935076 ] } },
{ "type": "Feature", "properties": { "ACCT": "1080440", "Steet Name": "Ritchie", "City": "TAKO", "ZIP": 20912, "Licence Type": "ACC", "Lic Status": "EX", "Point X": 1309919.0, "Point Y": 480634.0 }, "geometry": { "type": "Point", "coordinates": [ -77.008493772585041, 38.986409279822048 ] } },
{ "type": "Feature", "properties": { "ACCT": "2006406", "Steet Name": "Hobart", "City": "SILV", "ZIP": 20904, "Licence Type": "ACC", "Lic Status": "PE", "Point X": 1316801.0, "Point Y": 514339.0 }, "geometry": { "type": "Point", "coordinates": [ -76.984262029382649, 39.078951683125389 ] } },
{ "type": "Feature", "properties": { "ACCT": "295691", "Steet Name": "Oakview", "City": "SILV", "ZIP": 20903, "Licence Type": "ACC", "Lic Status": "EX", "Point X": 1315868.0, "Point Y": 491508.0 }, "geometry": { "type": "Point", "coordinates": [ -76.987559609984828, 39.016265657715259 ] } },
{ "type": "Feature", "properties": { "ACCT": "372846", "Steet Name": "Pebblestone", "City": "SILV", "ZIP": 20905, "Licence Type": "ACC", "Lic Status": "EX", "Point X": 1305872.0, "Point Y": 519987.0 }, "geometry": { "type": "Point", "coordinates": [ -77.022765894383951, 39.094457941130152 ] } },
{ "type": "Feature", "properties": { "ACCT": "2942448", "Steet Name": "Hershfield", "City": "SILV", "ZIP": 20904, "Licence Type": "ACC", "Lic Status": "EX", "Point X": 1324925.0, "Point Y": 509358.0 }, "geometry": { "type": "Point", "coordinates": [ -76.955652650500426, 39.065268229931164 ] } },
{ "type": "Feature", "properties": { "ACCT": "3379605", "Steet Name": "Boland Farm", "City": "GERM", "ZIP": 20874, "Licence Type": "ACC", "Lic Status": "LI", "Point X": 1242068.0, "Point Y": 556132.0 }, "geometry": { "type": "Point", "coordinates": [ -77.247918499830575, 39.193438186670718 ] } },
{ "type": "Feature", "properties": { "ACCT": "1357117", "Steet Name": "Carmody", "City": "SILV", "ZIP": 20902, "Licence Type": "ACC", "Lic Status": "EX", "Point X": 1300598.0, "Point Y": 498458.0 }, "geometry": { "type": "Point", "coordinates": [ -77.041314002005421, 39.035341536123866 ] } },
{ "type": "Feature", "properties": { "ACCT": "1384246", "Steet Name": "Brad", "City": "ROCK", "ZIP": 20853, "Licence Type": "ACC", "Lic Status": "LI", "Point X": 1286763.0, "Point Y": 518011.0 }, "geometry": { "type": "Point", "coordinates": [ -77.090087746574724, 39.089000119951571 ] } },
{ "type": "Feature", "properties": { "ACCT": "722991", "Steet Name": "New Hampshire", "City": "BRKV", "ZIP": 20833, "Licence Type": "ACC", "Lic Status": "LI", "Point X": 1306286.0, "Point Y": 556573.0 }, "geometry": { "type": "Point", "coordinates": [ -77.021337334851921, 39.194909004910848 ] } },
{ "type": "Feature", "properties": { "ACCT": "3043632", "Steet Name": "Brighton Dam", "City": "BRKV", "ZIP": 20833, "Licence Type": "ACC", "Lic Status": "LI", "Point X": 1297744.0, "Point Y": 551357.0 }, "geometry": { "type": "Point", "coordinates": [ -77.05146644152164, 39.18057872453037 ] } },
{ "type": "Feature", "properties": { "ACCT": "298227", "Steet Name": "Dilston", "City": "SILV", "ZIP": 20903, "Licence Type": "ACC", "Lic Status": "EX", "Point X": 1316614.0, "Point Y": 491534.0 }, "geometry": { "type": "Point", "coordinates": [ -76.98493402059303, 39.016336737075207 ] } },
{ "type": "Feature", "properties": { "ACCT": "1306767", "Steet Name": "Renn", "City": "ROCK", "ZIP": 20853, "Licence Type": "ACC", "Lic Status": "EX", "Point X": 1287025.0, "Point Y": 515608.0 }, "geometry": { "type": "Point", "coordinates": [ -77.08915641731538, 39.082403038686792 ] } },
{ "type": "Feature", "properties": { "ACCT": "1397922", "Steet Name": "Heron", "City": "SILV", "ZIP": 20901, "Licence Type": "ACC", "Lic Status": "EX", "Point X": 1314248.0, "Point Y": 486150.0 }, "geometry": { "type": "Point", "coordinates": [ -76.993262651061244, 39.001554693231725 ] } },
{ "type": "Feature", "properties": { "ACCT": "983551", "Steet Name": "Estona", "City": "WHEA", "ZIP": 20902, "Licence Type": "ACC", "Lic Status": "LI", "Point X": 1295110.0, "Point Y": 500678.0 }, "geometry": { "type": "Point", "coordinates": [ -77.060639581535611, 39.041428523985758 ] } },
{ "type": "Feature", "properties": { "ACCT": "3157911", "Steet Name": "Lincoln", "City": "TAKO", "ZIP": 20912, "Licence Type": "ACC", "Lic Status": "EX", "Point X": 1311589.0, "Point Y": 478796.0 }, "geometry": { "type": "Point", "coordinates": [ -77.0026184239956, 38.98136294585133 ] } },
{ "type": "Feature", "properties": { "ACCT": "2361172", "Steet Name": "Ridge", "City": "ROCK", "ZIP": 20853, "Licence Type": "ACC", "Lic Status": "EX", "Point X": 1284258.0, "Point Y": 538287.0 }, "geometry": { "type": "Point", "coordinates": [ -77.098990656419531, 39.144663294874718 ] } },
{ "type": "Feature", "properties": { "ACCT": "1068345", "Steet Name": "Sherman", "City": "TAKO", "ZIP": 20912, "Licence Type": "ACC", "Lic Status": "EX", "Point X": 1310566.0, "Point Y": 478975.0 }, "geometry": { "type": "Point", "coordinates": [ -77.006217189148018, 38.981854292050464 ] } },
{ "type": "Feature", "properties": { "ACCT": "646486", "Steet Name": "Marbury", "City": "BETH", "ZIP": 20817, "Licence Type": "ACC", "Lic Status": "PE", "Point X": 1277910.0, "Point Y": 480539.0 }, "geometry": { "type": "Point", "coordinates": [ -77.12110289715865, 38.986086053471446 ] } },
{ "type": "Feature", "properties": { "ACCT": "483142", "Steet Name": "78th", "City": "CABI", "ZIP": 20818, "Licence Type": "ACC", "Lic Status": "EX", "Point X": 1266993.0, "Point Y": 476408.0 }, "geometry": { "type": "Point", "coordinates": [ -77.159483955847307, 38.974697468993469 ] } },
{ "type": "Feature", "properties": { "ACCT": "1281212", "Steet Name": "Keating", "City": "ROCK", "ZIP": 20853, "Licence Type": "ACC", "Lic Status": "LI", "Point X": 1287727.0, "Point Y": 513892.0 }, "geometry": { "type": "Point", "coordinates": [ -77.086677667262222, 39.077693359958381 ] } },
{ "type": "Feature", "properties": { "ACCT": "697246", "Steet Name": "Berkshire", "City": "BETH", "ZIP": 20814, "Licence Type": "ACC", "Lic Status": "PE", "Point X": 1278312.0, "Point Y": 493992.0 }, "geometry": { "type": "Point", "coordinates": [ -77.119750728383522, 39.023025340641681 ] } },
{ "type": "Feature", "properties": { "ACCT": "2351628", "Steet Name": "Tulip", "City": "TAKO", "ZIP": 20912, "Licence Type": "ACC", "Lic Status": "EX", "Point X": 1307978.0, "Point Y": 477713.0 }, "geometry": { "type": "Point", "coordinates": [ -77.015320605721172, 38.978388366457438 ] } },
{ "type": "Feature", "properties": { "ACCT": "2711043", "Steet Name": "Broad", "City": "BETH", "ZIP": 20816, "Licence Type": "ACC", "Lic Status": "LI", "Point X": 1278554.0, "Point Y": 463829.0 }, "geometry": { "type": "Point", "coordinates": [ -77.118760799883162, 38.940207428983101 ] } },
{ "type": "Feature", "properties": { "ACCT": "1003043", "Steet Name": "Linden", "City": "SILV", "ZIP": 20910, "Licence Type": "ACC", "Lic Status": "LI", "Point X": 1295850.0, "Point Y": 489822.0 }, "geometry": { "type": "Point", "coordinates": [ -77.058009916223227, 39.011622703019931 ] } },
{ "type": "Feature", "properties": { "ACCT": "1998650", "Steet Name": "Veirs Mill", "City": "SILV", "ZIP": 20906, "Licence Type": "ACC", "Lic Status": "LI", "Point X": 1290307.0, "Point Y": 504863.0 }, "geometry": { "type": "Point", "coordinates": [ -77.077562403854898, 39.052909174561819 ] } },
{ "type": "Feature", "properties": { "ACCT": "1392793", "Steet Name": "Woodedge", "City": "SILV", "ZIP": 20906, "Licence Type": "ACC", "Lic Status": "LI", "Point X": 1296790.0, "Point Y": 511986.0 }, "geometry": { "type": "Point", "coordinates": [ -77.054748548232865, 39.072479419840633 ] } },
{ "type": "Feature", "properties": { "ACCT": "1110638", "Steet Name": "Hereford", "City": "SILV", "ZIP": 20901, "Licence Type": "ACC", "Lic Status": "PE", "Point X": 1306625.0, "Point Y": 493652.0 }, "geometry": { "type": "Point", "coordinates": [ -77.020092347773186, 39.022151350485288 ] } },
{ "type": "Feature", "properties": { "ACCT": "1711", "Steet Name": "Damascus", "City": "LAYT", "ZIP": 20882, "Licence Type": "ACC", "Lic Status": "LI", "Point X": 1283808.0, "Point Y": 571360.0 }, "geometry": { "type": "Point", "coordinates": [ -77.100705949270619, 39.235466290197927 ] } },
{ "type": "Feature", "properties": { "ACCT": "631122", "Steet Name": "Woodhaven", "City": "BETH", "ZIP": 20817, "Licence Type": "ACC", "Lic Status": "PE", "Point X": 1275065.0, "Point Y": 483344.0 }, "geometry": { "type": "Point", "coordinates": [ -77.131125901580759, 38.993776958598055 ] } },
{ "type": "Feature", "properties": { "ACCT": "693762", "Steet Name": "Stardust", "City": "BETH", "ZIP": 20817, "Licence Type": "ACC", "Lic Status": "LI", "Point X": 1276829.0, "Point Y": 476272.0 }, "geometry": { "type": "Point", "coordinates": [ -77.1248853649263, 38.974366116290291 ] } },
{ "type": "Feature", "properties": { "ACCT": "1864076", "Steet Name": "Springer", "City": "BETH", "ZIP": 20817, "Licence Type": "ACC", "Lic Status": "LI", "Point X": 1274609.0, "Point Y": 481024.0 }, "geometry": { "type": "Point", "coordinates": [ -77.13271843466886, 38.987405119925747 ] } },
{ "type": "Feature", "properties": { "ACCT": "1301982", "Steet Name": "Camelot", "City": "ROCK", "ZIP": 20853, "Licence Type": "ACC", "Lic Status": "LI", "Point X": 1284386.0, "Point Y": 512174.0 }, "geometry": { "type": "Point", "coordinates": [ -77.098440057751517, 39.072967027820802 ] } },
{ "type": "Feature", "properties": { "ACCT": "3183750", "Steet Name": "Earl", "City": "BETH", "ZIP": 20817, "Licence Type": "ACC", "Lic Status": "PE", "Point X": 1267284.0, "Point Y": 485557.0 }, "geometry": { "type": "Point", "coordinates": [ -77.158516250556872, 38.999819296166471 ] } },
{ "type": "Feature", "properties": { "ACCT": "3175032", "Steet Name": "Larch", "City": "TAKO", "ZIP": 20912, "Licence Type": "ACC", "Lic Status": "EX", "Point X": 1314583.0, "Point Y": 477575.0 }, "geometry": { "type": "Point", "coordinates": [ -76.992086465473363, 38.978010193926515 ] } },
{ "type": "Feature", "properties": { "ACCT": "294311", "Steet Name": "Northwest", "City": "SILV", "ZIP": 20901, "Licence Type": "ACC", "Lic Status": "LI", "Point X": 1312746.0, "Point Y": 499099.0 }, "geometry": { "type": "Point", "coordinates": [ -76.998547178176935, 39.037108798110715 ] } },
{ "type": "Feature", "properties": { "ACCT": "129517", "Steet Name": "Over Ridge", "City": "POTO", "ZIP": 20854, "Licence Type": "ACC", "Lic Status": "EX", "Point X": 1261335.0, "Point Y": 508127.0 }, "geometry": { "type": "Point", "coordinates": [ -77.179605349403019, 39.061758972954202 ] } },
{ "type": "Feature", "properties": { "ACCT": "866638", "Steet Name": "Harrington", "City": "POTO", "ZIP": 20854, "Licence Type": "ACC", "Lic Status": "PE", "Point X": 1260219.0, "Point Y": 488121.0 }, "geometry": { "type": "Point", "coordinates": [ -77.183394110782771, 39.006822926118666 ] } },
{ "type": "Feature", "properties": { "ACCT": "2362861", "Steet Name": "Cape Jasmine", "City": "GAIT", "ZIP": 20879, "Licence Type": "ACC", "Lic Status": "LI", "Point X": 1261883.0, "Point Y": 543541.0 }, "geometry": { "type": "Point", "coordinates": [ -77.177918490501611, 39.158995503044686 ] } },
{ "type": "Feature", "properties": { "ACCT": "1755702", "Steet Name": "Mineral Springs", "City": "GAIT", "ZIP": 20877, "Licence Type": "ACC", "Lic Status": "EX", "Point X": 1266865.0, "Point Y": 541049.0 }, "geometry": { "type": "Point", "coordinates": [ -77.160333538010335, 39.152178820973333 ] } },
{ "type": "Feature", "properties": { "ACCT": "482114", "Steet Name": "77th", "City": "CABI", "ZIP": 20818, "Licence Type": "ACC", "Lic Status": "PE", "Point X": 1267208.0, "Point Y": 476884.0 }, "geometry": { "type": "Point", "coordinates": [ -77.158730609307071, 38.976005455625362 ] } },
{ "type": "Feature", "properties": { "ACCT": "510623", "Steet Name": "University", "City": "GLEN", "ZIP": 20812, "Licence Type": "ACC", "Lic Status": "EX", "Point X": 1271635.0, "Point Y": 474836.0 }, "geometry": { "type": "Point", "coordinates": [ -77.143147146635044, 38.970402337019117 ] } },
{ "type": "Feature", "properties": { "ACCT": "1079771", "Steet Name": "Eastern", "City": "TAKO", "ZIP": 20912, "Licence Type": "ACC", "Lic Status": "EX", "Point X": 1309613.0, "Point Y": 475325.0 }, "geometry": { "type": "Point", "coordinates": [ -77.009568341816021, 38.971832213811737 ] } },
{ "type": "Feature", "properties": { "ACCT": "880220", "Steet Name": "Tuckerman", "City": "POTO", "ZIP": 20854, "Licence Type": "ACC", "Lic Status": "EX", "Point X": 1259573.0, "Point Y": 503529.0 }, "geometry": { "type": "Point", "coordinates": [ -77.185777770032615, 39.049124741461824 ] } },
{ "type": "Feature", "properties": { "ACCT": "733152", "Steet Name": "Patuxent", "City": "ASHT", "ZIP": 20861, "Licence Type": "ACC", "Lic Status": "LI", "Point X": 1316720.0, "Point Y": 538370.0 }, "geometry": { "type": "Point", "coordinates": [ -76.984533020358384, 39.144931953771952 ] } },
{ "type": "Feature", "properties": { "ACCT": "1090120", "Steet Name": "First", "City": "SILV", "ZIP": 20910, "Licence Type": "ACC", "Lic Status": "LI", "Point X": 1302051.0, "Point Y": 485998.0 }, "geometry": { "type": "Point", "coordinates": [ -77.036181359965155, 39.001131946190732 ] } },
{ "type": "Feature", "properties": { "ACCT": "1080917", "Steet Name": "Carroll", "City": "TAKO", "ZIP": 20912, "Licence Type": "ACC", "Lic Status": "EX", "Point X": 1311887.0, "Point Y": 479209.0 }, "geometry": { "type": "Point", "coordinates": [ -77.001570140834019, 38.98249694287334 ] } },
{ "type": "Feature", "properties": { "ACCT": "439521", "Steet Name": "Park", "City": "BETH", "ZIP": 20816, "Licence Type": "ACC", "Lic Status": "LI", "Point X": 1285175.0, "Point Y": 469432.0 }, "geometry": { "type": "Point", "coordinates": [ -77.095503429090982, 38.955613070590978 ] } },
{ "type": "Feature", "properties": { "ACCT": "260544", "Steet Name": "Spencerville", "City": "SPEN", "ZIP": 20868, "Licence Type": "ACC", "Lic Status": "LI", "Point X": 1321426.0, "Point Y": 527731.0 }, "geometry": { "type": "Point", "coordinates": [ -76.967953271874407, 39.11571796608294 ] } },
{ "type": "Feature", "properties": { "ACCT": "2468648", "Steet Name": "Chrisman Hill", "City": "BOYD", "ZIP": 20841, "Licence Type": "ACC", "Lic Status": "LI", "Point X": 1227323.0, "Point Y": 558137.0 }, "geometry": { "type": "Point", "coordinates": [ -77.299966464895675, 39.19882154724921 ] } },
{ "type": "Feature", "properties": { "ACCT": "1068447", "Steet Name": "Flower", "City": "TAKO", "ZIP": 20912, "Licence Type": "ACC", "Lic Status": "EX", "Point X": 1312927.0, "Point Y": 479870.0 }, "geometry": { "type": "Point", "coordinates": [ -76.997911504319333, 38.984311848563607 ] } },
{ "type": "Feature", "properties": { "ACCT": "1910436", "Steet Name": "Blue Valley", "City": "SILV", "ZIP": 20904, "Licence Type": "ACC", "Lic Status": "LI", "Point X": 1321740.0, "Point Y": 511197.0 }, "geometry": { "type": "Point", "coordinates": [ -76.966867741731477, 39.070321207157853 ] } },
{ "type": "Feature", "properties": { "ACCT": "333743", "Steet Name": "Eastbourne", "City": "SILV", "ZIP": 20904, "Licence Type": "ACC", "Lic Status": "EX", "Point X": 1315713.0, "Point Y": 507874.0 }, "geometry": { "type": "Point", "coordinates": [ -76.988097628061894, 39.061201460538882 ] } },
{ "type": "Feature", "properties": { "ACCT": "555654", "Steet Name": "Acacia", "City": "BETH", "ZIP": 20814, "Licence Type": "ACC", "Lic Status": "LI", "Point X": 1281986.0, "Point Y": 487922.0 }, "geometry": { "type": "Point", "coordinates": [ -77.106793737614566, 39.006371524604852 ] } },
{ "type": "Feature", "properties": { "ACCT": "1294054", "Steet Name": "Dameron", "City": "SILV", "ZIP": 20902, "Licence Type": "ACC", "Lic Status": "EX", "Point X": 1302707.0, "Point Y": 492824.0 }, "geometry": { "type": "Point", "coordinates": [ -77.033881949422749, 39.019874741104644 ] } },
{ "type": "Feature", "properties": { "ACCT": "1755677", "Steet Name": "Mineral Springs", "City": "GAIT", "ZIP": 20877, "Licence Type": "ACC", "Lic Status": "PE", "Point X": 1266691.0, "Point Y": 541108.0 }, "geometry": { "type": "Point", "coordinates": [ -77.160947474217622, 39.152339970596522 ] } },
{ "type": "Feature", "properties": { "ACCT": "1141798", "Steet Name": "Parkwood", "City": "BETH", "ZIP": 20814, "Licence Type": "ACC", "Lic Status": "LI", "Point X": 1284655.0, "Point Y": 494247.0 }, "geometry": { "type": "Point", "coordinates": [ -77.09742515877295, 39.023746206351817 ] } },
{ "type": "Feature", "properties": { "ACCT": "869858", "Steet Name": "Carteret", "City": "BETH", "ZIP": 20817, "Licence Type": "ACC", "Lic Status": "PE", "Point X": 1267223.0, "Point Y": 487875.0 }, "geometry": { "type": "Point", "coordinates": [ -77.158745075872218, 39.006183523611291 ] } },
{ "type": "Feature", "properties": { "ACCT": "577024", "Steet Name": "Lindale", "City": "BETH", "ZIP": 20817, "Licence Type": "ACC", "Lic Status": "EX", "Point X": 1278271.0, "Point Y": 489822.0 }, "geometry": { "type": "Point", "coordinates": [ -77.119875768687422, 39.011575676695706 ] } },
{ "type": "Feature", "properties": { "ACCT": "913068", "Steet Name": "Falls Bridge", "City": "POTO", "ZIP": 20854, "Licence Type": "ACC", "Lic Status": "LI", "Point X": 1252629.0, "Point Y": 489750.0 }, "geometry": { "type": "Point", "coordinates": [ -77.210116976468299, 39.011250735843674 ] } },
{ "type": "Feature", "properties": { "ACCT": "1782410", "Steet Name": "Donovan", "City": "GAIT", "ZIP": 20879, "Licence Type": "ACC", "Lic Status": "EX", "Point X": 1249479.0, "Point Y": 546864.0 }, "geometry": { "type": "Point", "coordinates": [ -77.22169082591607, 39.168044552226512 ] } },
{ "type": "Feature", "properties": { "ACCT": "1369478", "Steet Name": "Cable", "City": "KENS", "ZIP": 20895, "Licence Type": "ACC", "Lic Status": "PE", "Point X": 1287894.0, "Point Y": 490815.0 }, "geometry": { "type": "Point", "coordinates": [ -77.086012804935848, 39.014331942772309 ] } },
{ "type": "Feature", "properties": { "ACCT": "1339437", "Steet Name": "Havard", "City": "SILV", "ZIP": 20906, "Licence Type": "ACC", "Lic Status": "PE", "Point X": 1288368.0, "Point Y": 508111.0 }, "geometry": { "type": "Point", "coordinates": [ -77.084400870073495, 39.061822369495417 ] } },
{ "type": "Feature", "properties": { "ACCT": "1261167", "Steet Name": "Spruell", "City": "KENS", "ZIP": 20895, "Licence Type": "ACC", "Lic Status": "LI", "Point X": 1289656.0, "Point Y": 499858.0 }, "geometry": { "type": "Point", "coordinates": [ -77.079839386890384, 39.039165548341778 ] } },
{ "type": "Feature", "properties": { "ACCT": "2164738", "Steet Name": "Cashell", "City": "ROCK", "ZIP": 20853, "Licence Type": "ACC", "Lic Status": "LI", "Point X": 1288901.0, "Point Y": 533484.0 }, "geometry": { "type": "Point", "coordinates": [ -77.082604615113056, 39.131488804665182 ] } },
{ "type": "Feature", "properties": { "ACCT": "628636", "Steet Name": "Cedar", "City": "BETH", "ZIP": 20814, "Licence Type": "ACC", "Lic Status": "LI", "Point X": 1286362.0, "Point Y": 489277.0 }, "geometry": { "type": "Point", "coordinates": [ -77.091399166489865, 39.010104981997927 ] } },
{ "type": "Feature", "properties": { "ACCT": "1144702", "Steet Name": "Thornwood", "City": "KENS", "ZIP": 20895, "Licence Type": "ACC", "Lic Status": "PE", "Point X": 1287635.0, "Point Y": 493364.0 }, "geometry": { "type": "Point", "coordinates": [ -77.08693288277982, 39.02133002827312 ] } },
{ "type": "Feature", "properties": { "ACCT": "628578", "Steet Name": "Cedar", "City": "BETH", "ZIP": 20814, "Licence Type": "ACC", "Lic Status": "LI", "Point X": 1286364.0, "Point Y": 489191.0 }, "geometry": { "type": "Point", "coordinates": [ -77.091391825032531, 39.009868857930137 ] } },
{ "type": "Feature", "properties": { "ACCT": "1343417", "Steet Name": "Conger", "City": "SILV", "ZIP": 20906, "Licence Type": "ACC", "Lic Status": "LI", "Point X": 1288628.0, "Point Y": 507443.0 }, "geometry": { "type": "Point", "coordinates": [ -77.083483053782814, 39.059988923687371 ] } },
{ "type": "Feature", "properties": { "ACCT": "467984", "Steet Name": "Windsor", "City": "CHEV", "ZIP": 20815, "Licence Type": "ACC", "Lic Status": "EX", "Point X": 1291902.0, "Point Y": 480090.0 }, "geometry": { "type": "Point", "coordinates": [ -77.071877169658165, 38.984893838159323 ] } },
{ "type": "Feature", "properties": { "ACCT": "628157", "Steet Name": "Parkhill", "City": "BETH", "ZIP": 20814, "Licence Type": "ACC", "Lic Status": "LI", "Point X": 1287324.0, "Point Y": 488214.0 }, "geometry": { "type": "Point", "coordinates": [ -77.088010060096778, 39.007188905384027 ] } },
{ "type": "Feature", "properties": { "ACCT": "1374624", "Steet Name": "London", "City": "ROCK", "ZIP": 20853, "Licence Type": "ACC", "Lic Status": "LI", "Point X": 1289669.0, "Point Y": 517240.0 }, "geometry": { "type": "Point", "coordinates": [ -77.079847144630293, 39.086890654219523 ] } },
{ "type": "Feature", "properties": { "ACCT": "1922024", "Steet Name": "Baileys", "City": "SILV", "ZIP": 20906, "Licence Type": "ACC", "Lic Status": "LI", "Point X": 1295518.0, "Point Y": 525214.0 }, "geometry": { "type": "Point", "coordinates": [ -77.059259180019609, 39.108796612597843 ] } },
{ "type": "Feature", "properties": { "ACCT": "3288921", "Steet Name": "Georgia", "City": "BRKV", "ZIP": 20833, "Licence Type": "ACC", "Lic Status": "LI", "Point X": 1294769.0, "Point Y": 553623.0 }, "geometry": { "type": "Point", "coordinates": [ -77.061966701143916, 39.186795132703637 ] } },
{ "type": "Feature", "properties": { "ACCT": "1415394", "Steet Name": "Layhill", "City": "SILV", "ZIP": 20906, "Licence Type": "ACC", "Lic Status": "LI", "Point X": 1299076.0, "Point Y": 509750.0 }, "geometry": { "type": "Point", "coordinates": [ -77.046692504389114, 39.066343617200467 ] } },
{ "type": "Feature", "properties": { "ACCT": "967130", "Steet Name": "Glenhaven", "City": "SILV", "ZIP": 20902, "Licence Type": "ACC", "Lic Status": "LI", "Point X": 1300120.0, "Point Y": 499300.0 }, "geometry": { "type": "Point", "coordinates": [ -77.042998187275657, 39.037652790875285 ] } },
{ "type": "Feature", "properties": { "ACCT": "1090107", "Steet Name": "Lanier", "City": "SILV", "ZIP": 20910, "Licence Type": "ACC", "Lic Status": "LI", "Point X": 1299840.0, "Point Y": 487402.0 }, "geometry": { "type": "Point", "coordinates": [ -77.043963780530902, 39.004984240999946 ] } },
{ "type": "Feature", "properties": { "ACCT": "1268671", "Steet Name": "Bucknell", "City": "WHEA", "ZIP": 20902, "Licence Type": "ACC", "Lic Status": "LI", "Point X": 1299177.0, "Point Y": 499969.0 }, "geometry": { "type": "Point", "coordinates": [ -77.046319301954014, 39.039488381912072 ] } },
{ "type": "Feature", "properties": { "ACCT": "1347643", "Steet Name": "Osborn", "City": "SILV", "ZIP": 20910, "Licence Type": "ACC", "Lic Status": "LI", "Point X": 1298960.0, "Point Y": 489749.0 }, "geometry": { "type": "Point", "coordinates": [ -77.047064739842725, 39.011427181785798 ] } },
{ "type": "Feature", "properties": { "ACCT": "1393423", "Steet Name": "Channing", "City": "SILV", "ZIP": 20902, "Licence Type": "ACC", "Lic Status": "LI", "Point X": 1300698.0, "Point Y": 501907.0 }, "geometry": { "type": "Point", "coordinates": [ -77.040967403086469, 39.044811495591944 ] } },
{ "type": "Feature", "properties": { "ACCT": "1070042", "Steet Name": "Maple", "City": "TAKO", "ZIP": 20912, "Licence Type": "ACC", "Lic Status": "EX", "Point X": 1309129.0, "Point Y": 478025.0 }, "geometry": { "type": "Point", "coordinates": [ -77.011271908008183, 38.979245488830323 ] } },
{ "type": "Feature", "properties": { "ACCT": "1337440", "Steet Name": "Forest Glen", "City": "SILV", "ZIP": 20910, "Licence Type": "ACC", "Lic Status": "LI", "Point X": 1300459.0, "Point Y": 491222.0 }, "geometry": { "type": "Point", "coordinates": [ -77.04179168658942, 39.015473588653087 ] } },
{ "type": "Feature", "properties": { "ACCT": "1106396", "Steet Name": "Greenock", "City": "SILV", "ZIP": 20901, "Licence Type": "ACC", "Lic Status": "EX", "Point X": 1306061.0, "Point Y": 492311.0 }, "geometry": { "type": "Point", "coordinates": [ -77.022076388975236, 39.018469025409686 ] } },
{ "type": "Feature", "properties": { "ACCT": "1075237", "Steet Name": "Boston", "City": "TAKO", "ZIP": 20912, "Licence Type": "ACC", "Lic Status": "EX", "Point X": 1307659.0, "Point Y": 479670.0 }, "geometry": { "type": "Point", "coordinates": [ -77.01644398111344, 38.98376156949648 ] } },
{ "type": "Feature", "properties": { "ACCT": "1069180", "Steet Name": "Hodges", "City": "TAKO", "ZIP": 20912, "Licence Type": "ACC", "Lic Status": "EX", "Point X": 1308324.0, "Point Y": 479536.0 }, "geometry": { "type": "Point", "coordinates": [ -77.014104484183804, 38.983393949984446 ] } },
{ "type": "Feature", "properties": { "ACCT": "376467", "Steet Name": "Springloch", "City": "SILV", "ZIP": 20904, "Licence Type": "ACC", "Lic Status": "PE", "Point X": 1305598.0, "Point Y": 508539.0 }, "geometry": { "type": "Point", "coordinates": [ -77.023720826292447, 39.063025528339544 ] } },
{ "type": "Feature", "properties": { "ACCT": "1312198", "Steet Name": "Ferrara", "City": "SILV", "ZIP": 20906, "Licence Type": "ACC", "Lic Status": "EX", "Point X": 1289699.0, "Point Y": 504793.0 }, "geometry": { "type": "Point", "coordinates": [ -77.079703167711017, 39.052715539922566 ] } },
{ "type": "Feature", "properties": { "ACCT": "541191", "Steet Name": "Chase", "City": "BETH", "ZIP": 20814, "Licence Type": "ACC", "Lic Status": "LI", "Point X": 1286549.0, "Point Y": 481877.0 }, "geometry": { "type": "Point", "coordinates": [ -77.090715191631446, 38.989787325690905 ] } },
{ "type": "Feature", "properties": { "ACCT": "1249677", "Steet Name": "Huggins", "City": "SILV", "ZIP": 20902, "Licence Type": "ACC", "Lic Status": "EX", "Point X": 1291142.0, "Point Y": 503279.0 }, "geometry": { "type": "Point", "coordinates": [ -77.074617519642374, 39.048561946501842 ] } },
{ "type": "Feature", "properties": { "ACCT": "1386520", "Steet Name": "Oakvale", "City": "ROCK", "ZIP": 20853, "Licence Type": "ACC", "Lic Status": "EX", "Point X": 1286501.0, "Point Y": 517924.0 }, "geometry": { "type": "Point", "coordinates": [ -77.091010501873953, 39.088760535393 ] } },
{ "type": "Feature", "properties": { "ACCT": "1136906", "Steet Name": "Plyers Mill", "City": "SILV", "ZIP": 20902, "Licence Type": "ACC", "Lic Status": "LI", "Point X": 1295254.0, "Point Y": 496497.0 }, "geometry": { "type": "Point", "coordinates": [ -77.060122894345596, 39.029949105320178 ] } },
{ "type": "Feature", "properties": { "ACCT": "531330", "Steet Name": "Rollingwood", "City": "CHEV", "ZIP": 20815, "Licence Type": "ACC", "Lic Status": "LI", "Point X": 1293874.0, "Point Y": 478969.0 }, "geometry": { "type": "Point", "coordinates": [ -77.064936895928682, 38.981819956335258 ] } },
{ "type": "Feature", "properties": { "ACCT": "1246721", "Steet Name": "Feldon", "City": "SILV", "ZIP": 20906, "Licence Type": "ACC", "Lic Status": "LI", "Point X": 1290957.0, "Point Y": 509408.0 }, "geometry": { "type": "Point", "coordinates": [ -77.075286727238733, 39.065389708419559 ] } },
{ "type": "Feature", "properties": { "ACCT": "506483", "Steet Name": "Massachusetts", "City": "BETH", "ZIP": 20816, "Licence Type": "ACC", "Lic Status": "LI", "Point X": 1277778.0, "Point Y": 472305.0 }, "geometry": { "type": "Point", "coordinates": [ -77.121528715414726, 38.963477382564925 ] } },
{ "type": "Feature", "properties": { "ACCT": "640057", "Steet Name": "Crathie", "City": "BETH", "ZIP": 20816, "Licence Type": "ACC", "Lic Status": "PE", "Point X": 1272863.0, "Point Y": 475770.0 }, "geometry": { "type": "Point", "coordinates": [ -77.138832938265793, 38.972972039931022 ] } },
{ "type": "Feature", "properties": { "ACCT": "2883838", "Steet Name": "Fernwood", "City": "BETH", "ZIP": 20817, "Licence Type": "ACC", "Lic Status": "LI", "Point X": 1273981.0, "Point Y": 487410.0 }, "geometry": { "type": "Point", "coordinates": [ -77.1349610206302, 39.004936625870229 ] } },
{ "type": "Feature", "properties": { "ACCT": "561848", "Steet Name": "Nahant", "City": "BETH", "ZIP": 20816, "Licence Type": "ACC", "Lic Status": "LI", "Point X": 1278902.0, "Point Y": 470480.0 }, "geometry": { "type": "Point", "coordinates": [ -77.117567423587033, 38.958470486484607 ] } },
{ "type": "Feature", "properties": { "ACCT": "659477", "Steet Name": "Fernwood", "City": "BETH", "ZIP": 20817, "Licence Type": "ACC", "Lic Status": "LI", "Point X": 1274554.0, "Point Y": 487567.0 }, "geometry": { "type": "Point", "coordinates": [ -77.132945453628324, 39.005370008381654 ] } },
{ "type": "Feature", "properties": { "ACCT": "638236", "Steet Name": "Earlham", "City": "BETH", "ZIP": 20817, "Licence Type": "ACC", "Lic Status": "LI", "Point X": 1275281.0, "Point Y": 490301.0 }, "geometry": { "type": "Point", "coordinates": [ -77.130400887522427, 39.01287960851058 ] } },
{ "type": "Feature", "properties": { "ACCT": "696812", "Steet Name": "St Albans", "City": "BETH", "ZIP": 20814, "Licence Type": "ACC", "Lic Status": "LI", "Point X": 1279569.0, "Point Y": 495654.0 }, "geometry": { "type": "Point", "coordinates": [ -77.115333645315999, 39.027593109146565 ] } },
{ "type": "Feature", "properties": { "ACCT": "585718", "Steet Name": "Bradmoor", "City": "BETH", "ZIP": 20817, "Licence Type": "ACC", "Lic Status": "LI", "Point X": 1278332.0, "Point Y": 483778.0 }, "geometry": { "type": "Point", "coordinates": [ -77.119633216143782, 38.994980912654199 ] } },
{ "type": "Feature", "properties": { "ACCT": "634661", "Steet Name": "Belhaven", "City": "BETH", "ZIP": 20817, "Licence Type": "ACC", "Lic Status": "EX", "Point X": 1277232.0, "Point Y": 491350.0 }, "geometry": { "type": "Point", "coordinates": [ -77.123539600393826, 39.015767286727403 ] } },
{ "type": "Feature", "properties": { "ACCT": "580990", "Steet Name": "Bradmoor", "City": "BETH", "ZIP": 20817, "Licence Type": "ACC", "Lic Status": "LI", "Point X": 1277395.0, "Point Y": 486749.0 }, "geometry": { "type": "Point", "coordinates": [ -77.1229441119375, 39.0031349629364 ] } },
{ "type": "Feature", "properties": { "ACCT": "428790", "Steet Name": "Willard", "City": "CHEV", "ZIP": 20815, "Licence Type": "ACC", "Lic Status": "EX", "Point X": 1285228.0, "Point Y": 471857.0 }, "geometry": { "type": "Point", "coordinates": [ -77.095325957246715, 38.962271596626245 ] } },
{ "type": "Feature", "properties": { "ACCT": "116413", "Steet Name": "Galena", "City": "ROCK", "ZIP": 20852, "Licence Type": "ACC", "Lic Status": "EX", "Point X": 1284911.0, "Point Y": 504703.0 }, "geometry": { "type": "Point", "coordinates": [ -77.09656299386306, 39.052455738030773 ] } },
{ "type": "Feature", "properties": { "ACCT": "1258763", "Steet Name": "Wexford", "City": "KENS", "ZIP": 20895, "Licence Type": "ACC", "Lic Status": "LI", "Point X": 1289200.0, "Point Y": 498704.0 }, "geometry": { "type": "Point", "coordinates": [ -77.081441186592883, 39.03599593167575 ] } },
{ "type": "Feature", "properties": { "ACCT": "57882", "Steet Name": "Montrose", "City": "GARR", "ZIP": 20896, "Licence Type": "ACC", "Lic Status": "EX", "Point X": 1285167.0, "Point Y": 499503.0 }, "geometry": { "type": "Point", "coordinates": [ -77.095642350687214, 39.03817898712952 ] } },
{ "type": "Feature", "properties": { "ACCT": "1424514", "Steet Name": "Russett", "City": "ROCK", "ZIP": 20853, "Licence Type": "ACC", "Lic Status": "LI", "Point X": 1282565.0, "Point Y": 516916.0 }, "geometry": { "type": "Point", "coordinates": [ -77.104873425156285, 39.085981330992446 ] } },
{ "type": "Feature", "properties": { "ACCT": "718544", "Steet Name": "Rocking Spring", "City": "ROCK", "ZIP": 20853, "Licence Type": "ACC", "Lic Status": "EX", "Point X": 1281427.0, "Point Y": 523017.0 }, "geometry": { "type": "Point", "coordinates": [ -77.108908221935522, 39.102728821243893 ] } },
{ "type": "Feature", "properties": { "ACCT": "2262965", "Steet Name": "Botany", "City": "GAIT", "ZIP": 20878, "Licence Type": "ACC", "Lic Status": "EX", "Point X": 1248530.0, "Point Y": 521543.0 }, "geometry": { "type": "Point", "coordinates": [ -77.22481804802986, 39.098516658604034 ] } },
{ "type": "Feature", "properties": { "ACCT": "1318390", "Steet Name": "Georgia", "City": "SILV", "ZIP": 20906, "Licence Type": "ACC", "Lic Status": "EX", "Point X": 1292950.0, "Point Y": 512850.0 }, "geometry": { "type": "Point", "coordinates": [ -77.068276517636562, 39.07484456097805 ] } },
{ "type": "Feature", "properties": { "ACCT": "2411200", "Steet Name": "Waterfowl", "City": "ROCK", "ZIP": 20853, "Licence Type": "ACC", "Lic Status": "LI", "Point X": 1283946.0, "Point Y": 527607.0 }, "geometry": { "type": "Point", "coordinates": [ -77.100049464126968, 39.115339179697337 ] } },
{ "type": "Feature", "properties": { "ACCT": "1063536", "Steet Name": "Sycamore", "City": "TAKO", "ZIP": 20912, "Licence Type": "ACC", "Lic Status": "EX", "Point X": 1311163.0, "Point Y": 476552.0 }, "geometry": { "type": "Point", "coordinates": [ -77.004116656176834, 38.975201524780772 ] } },
{ "type": "Feature", "properties": { "ACCT": "364117", "Steet Name": "Palermo", "City": "SILV", "ZIP": 20904, "Licence Type": "ACC", "Lic Status": "EX", "Point X": 1327035.0, "Point Y": 508328.0 }, "geometry": { "type": "Point", "coordinates": [ -76.948223373543357, 39.062437149041429 ] } },
{ "type": "Feature", "properties": { "ACCT": "634422", "Steet Name": "Singleton", "City": "BETH", "ZIP": 20817, "Licence Type": "ACC", "Lic Status": "LI", "Point X": 1276402.0, "Point Y": 490631.0 }, "geometry": { "type": "Point", "coordinates": [ -77.126457287139687, 39.013790016154005 ] } },
{ "type": "Feature", "properties": { "ACCT": "1064280", "Steet Name": "Buffalo", "City": "TAKO", "ZIP": 20912, "Licence Type": "ACC", "Lic Status": "EX", "Point X": 1306732.0, "Point Y": 478783.0 }, "geometry": { "type": "Point", "coordinates": [ -77.01970442955421, 38.98132562109523 ] } },
{ "type": "Feature", "properties": { "ACCT": "1040364", "Steet Name": "Silver Spring", "City": "SILV", "ZIP": 20910, "Licence Type": "ACC", "Lic Status": "LI", "Point X": 1306980.0, "Point Y": 482756.0 }, "geometry": { "type": "Point", "coordinates": [ -77.018834896129576, 38.992234459768078 ] } },
{ "type": "Feature", "properties": { "ACCT": "1326220", "Steet Name": "Monticello", "City": "SILV", "ZIP": 20902, "Licence Type": "ACC", "Lic Status": "LI", "Point X": 1303873.0, "Point Y": 502065.0 }, "geometry": { "type": "Point", "coordinates": [ -77.029788575487629, 39.045248690286599 ] } },
{ "type": "Feature", "properties": { "ACCT": "2454243", "Steet Name": "Highland", "City": "SILV", "ZIP": 20910, "Licence Type": "ACC", "Lic Status": "LI", "Point X": 1301497.0, "Point Y": 486938.0 }, "geometry": { "type": "Point", "coordinates": [ -77.038132150478972, 39.003712283332199 ] } },
{ "type": "Feature", "properties": { "ACCT": "343811", "Steet Name": "Randolph", "City": "SILV", "ZIP": 20904, "Licence Type": "ACC", "Lic Status": "PE", "Point X": 1308404.0, "Point Y": 510674.0 }, "geometry": { "type": "Point", "coordinates": [ -77.013839657924137, 39.068889097301039 ] } },
{ "type": "Feature", "properties": { "ACCT": "1432274", "Steet Name": "Woodland", "City": "SILV", "ZIP": 20910, "Licence Type": "ACC", "Lic Status": "EX", "Point X": 1302916.0, "Point Y": 486513.0 }, "geometry": { "type": "Point", "coordinates": [ -77.033138265614866, 39.002546882669641 ] } },
{ "type": "Feature", "properties": { "ACCT": "3061117", "Steet Name": "Lindsey Manor", "City": "SILV", "ZIP": 20905, "Licence Type": "ACC", "Lic Status": "PE", "Point X": 1304930.0, "Point Y": 529483.0 }, "geometry": { "type": "Point", "coordinates": [ -77.02609450585436, 39.120529779570667 ] } },
{ "type": "Feature", "properties": { "ACCT": "1437072", "Steet Name": "Watson", "City": "SILV", "ZIP": 20910, "Licence Type": "ACC", "Lic Status": "PE", "Point X": 1305521.0, "Point Y": 487986.0 }, "geometry": { "type": "Point", "coordinates": [ -77.023972999965693, 39.006593531738737 ] } },
{ "type": "Feature", "properties": { "ACCT": "323983", "Steet Name": "Marine", "City": "SILV", "ZIP": 20905, "Licence Type": "ACC", "Lic Status": "EX", "Point X": 1309720.0, "Point Y": 518972.0 }, "geometry": { "type": "Point", "coordinates": [ -77.009207470573131, 39.091672964138546 ] } },
{ "type": "Feature", "properties": { "ACCT": "1038645", "Steet Name": "Bennington", "City": "SILV", "ZIP": 20910, "Licence Type": "ACC", "Lic Status": "LI", "Point X": 1307141.0, "Point Y": 487817.0 }, "geometry": { "type": "Point", "coordinates": [ -77.01827200594974, 39.006130538301157 ] } },
{ "type": "Feature", "properties": { "ACCT": "717334", "Steet Name": "Ednor", "City": "SILV", "ZIP": 20905, "Licence Type": "ACC", "Lic Status": "EX", "Point X": 1309797.0, "Point Y": 534444.0 }, "geometry": { "type": "Point", "coordinates": [ -77.008941518332406, 39.134153363018676 ] } },
{ "type": "Feature", "properties": { "ACCT": "3172313", "Steet Name": "Circle", "City": "TAKO", "ZIP": 20912, "Licence Type": "ACC", "Lic Status": "LI", "Point X": 1311547.0, "Point Y": 474986.0 }, "geometry": { "type": "Point", "coordinates": [ -77.002765766057735, 38.970901774850084 ] } },
{ "type": "Feature", "properties": { "ACCT": "2428745", "Steet Name": "Cannon", "City": "SILV", "ZIP": 20904, "Licence Type": "ACC", "Lic Status": "LI", "Point X": 1312378.0, "Point Y": 511233.0 }, "geometry": { "type": "Point", "coordinates": [ -76.999842673212456, 39.070424737626624 ] } },
{ "type": "Feature", "properties": { "ACCT": "1065774", "Steet Name": "Manor", "City": "TAKO", "ZIP": 20912, "Licence Type": "ACC", "Lic Status": "EX", "Point X": 1311199.0, "Point Y": 478092.0 }, "geometry": { "type": "Point", "coordinates": [ -77.003990262651982, 38.979429926611807 ] } },
{ "type": "Feature", "properties": { "ACCT": "1058860", "Steet Name": "Maple", "City": "TAKO", "ZIP": 20912, "Licence Type": "ACC", "Lic Status": "EX", "Point X": 1311186.0, "Point Y": 481322.0 }, "geometry": { "type": "Point", "coordinates": [ -77.004036495377449, 38.98829856498471 ] } },
{ "type": "Feature", "properties": { "ACCT": "1059900", "Steet Name": "Sycamore", "City": "TAKO", "ZIP": 20912, "Licence Type": "ACC", "Lic Status": "EX", "Point X": 1310773.0, "Point Y": 477201.0 }, "geometry": { "type": "Point", "coordinates": [ -77.005488621710768, 38.976983436379577 ] } },
{ "type": "Feature", "properties": { "ACCT": "2230297", "Steet Name": "Childs", "City": "SILV", "ZIP": 20901, "Licence Type": "ACC", "Lic Status": "EX", "Point X": 1310748.0, "Point Y": 497262.0 }, "geometry": { "type": "Point", "coordinates": [ -77.005580875666809, 39.032064861048781 ] } },
{ "type": "Feature", "properties": { "ACCT": "310503", "Steet Name": "Orchard", "City": "SILV", "ZIP": 20904, "Licence Type": "ACC", "Lic Status": "LI", "Point X": 1312489.0, "Point Y": 515581.0 }, "geometry": { "type": "Point", "coordinates": [ -76.999451615325043, 39.082362837315024 ] } },
{ "type": "Feature", "properties": { "ACCT": "3165716", "Steet Name": "Elm", "City": "TAKO", "ZIP": 20912, "Licence Type": "ACC", "Lic Status": "EX", "Point X": 1312129.0, "Point Y": 476493.0 }, "geometry": { "type": "Point", "coordinates": [ -77.000718741413635, 38.975039597909294 ] } },
{ "type": "Feature", "properties": { "ACCT": "733232", "Steet Name": "Hornell", "City": "SILV", "ZIP": 20905, "Licence Type": "ACC", "Lic Status": "EX", "Point X": 1315487.0, "Point Y": 537450.0 }, "geometry": { "type": "Point", "coordinates": [ -76.988880858676623, 39.142406486979418 ] } },
{ "type": "Feature", "properties": { "ACCT": "358947", "Steet Name": "O'Fallon", "City": "SILV", "ZIP": 20904, "Licence Type": "ACC", "Lic Status": "LI", "Point X": 1324930.0, "Point Y": 508025.0 }, "geometry": { "type": "Point", "coordinates": [ -76.95563732218011, 39.061608256789526 ] } },
{ "type": "Feature", "properties": { "ACCT": "339512", "Steet Name": "Billington", "City": "SILV", "ZIP": 20904, "Licence Type": "ACC", "Lic Status": "LI", "Point X": 1316857.0, "Point Y": 508210.0 }, "geometry": { "type": "Point", "coordinates": [ -76.984068529577698, 39.062123524347527 ] } },
{ "type": "Feature", "properties": { "ACCT": "286606", "Steet Name": "New Hampshire", "City": "SILV", "ZIP": 20903, "Licence Type": "ACC", "Lic Status": "LI", "Point X": 1318154.0, "Point Y": 494320.0 }, "geometry": { "type": "Point", "coordinates": [ -76.979511728231685, 39.023985400327241 ] } },
{ "type": "Feature", "properties": { "ACCT": "273433", "Steet Name": "Kingshouse", "City": "SILV", "ZIP": 20905, "Licence Type": "ACC", "Lic Status": "EX", "Point X": 1322281.0, "Point Y": 522406.0 }, "geometry": { "type": "Point", "coordinates": [ -76.964947066513176, 39.101096611437335 ] } },
{ "type": "Feature", "properties": { "ACCT": "360848", "Steet Name": "Castleleigh", "City": "SILV", "ZIP": 20904, "Licence Type": "ACC", "Lic Status": "LI", "Point X": 1328910.0, "Point Y": 507654.0 }, "geometry": { "type": "Point", "coordinates": [ -76.941621480512907, 39.060583466606452 ] } },
{ "type": "Feature", "properties": { "ACCT": "261492", "Steet Name": "Old Lyme", "City": "SILV", "ZIP": 20905, "Licence Type": "ACC", "Lic Status": "LI", "Point X": 1309652.0, "Point Y": 520630.0 }, "geometry": { "type": "Point", "coordinates": [ -77.009447657302729, 39.096225219508426 ] } },
{ "type": "Feature", "properties": { "ACCT": "1869397", "Steet Name": "Birch Springs", "City": "SILV", "ZIP": 20905, "Licence Type": "ACC", "Lic Status": "LI", "Point X": 1319330.0, "Point Y": 521760.0 }, "geometry": { "type": "Point", "coordinates": [ -76.975346220005278, 39.099325579097197 ] } },
{ "type": "Feature", "properties": { "ACCT": "2169137", "Steet Name": "Amity", "City": "ROCK", "ZIP": 20850, "Licence Type": "ACC", "Lic Status": "LI", "Point X": 1265473.0, "Point Y": 536485.0 }, "geometry": { "type": "Point", "coordinates": [ -77.165212966304964, 39.139641076395797 ] } },
{ "type": "Feature", "properties": { "ACCT": "556363", "Steet Name": "Locust", "City": "BETH", "ZIP": 20814, "Licence Type": "ACC", "Lic Status": "LI", "Point X": 1281362.0, "Point Y": 488214.0 }, "geometry": { "type": "Point", "coordinates": [ -77.108990848655097, 39.007171242303926 ] } },
{ "type": "Feature", "properties": { "ACCT": "503753", "Steet Name": "Wiscasset", "City": "BETH", "ZIP": 20816, "Licence Type": "ACC", "Lic Status": "LI", "Point X": 1276244.0, "Point Y": 473463.0 }, "geometry": { "type": "Point", "coordinates": [ -77.126929343106497, 38.96665119090224 ] } },
{ "type": "Feature", "properties": { "ACCT": "674267", "Steet Name": "Elsmere", "City": "BETH", "ZIP": 20814, "Licence Type": "ACC", "Lic Status": "LI", "Point X": 1283373.0, "Point Y": 489164.0 }, "geometry": { "type": "Point", "coordinates": [ -77.101917701009683, 39.009786029109399 ] } },
{ "type": "Feature", "properties": { "ACCT": "782458", "Steet Name": "Wheat Fall", "City": "DERW", "ZIP": 20855, "Licence Type": "ACC", "Lic Status": "LI", "Point X": 1268331.0, "Point Y": 538687.0 }, "geometry": { "type": "Point", "coordinates": [ -77.155149883248143, 39.145700667261615 ] } },
{ "type": "Feature", "properties": { "ACCT": "422383", "Steet Name": "Allandale", "City": "BETH", "ZIP": 20816, "Licence Type": "ACC", "Lic Status": "EX", "Point X": 1283034.0, "Point Y": 471323.0 }, "geometry": { "type": "Point", "coordinates": [ -77.103039845964418, 38.960798837251843 ] } },
{ "type": "Feature", "properties": { "ACCT": "1254845", "Steet Name": "University", "City": "SILV", "ZIP": 20901, "Licence Type": "ACC", "Lic Status": "LI", "Point X": 1312909.0, "Point Y": 487836.0 }, "geometry": { "type": "Point", "coordinates": [ -76.997974205681388, 39.00618411576577 ] } },
{ "type": "Feature", "properties": { "ACCT": "1068904", "Steet Name": "Holly", "City": "TAKO", "ZIP": 20912, "Licence Type": "ACC", "Lic Status": "EX", "Point X": 1308051.0, "Point Y": 478699.0 }, "geometry": { "type": "Point", "coordinates": [ -77.01506438848304, 38.98109567109443 ] } },
{ "type": "Feature", "properties": { "ACCT": "1807965", "Steet Name": "Luray", "City": "OLNE", "ZIP": 20832, "Licence Type": "ACC", "Lic Status": "LI", "Point X": 1287981.0, "Point Y": 545762.0 }, "geometry": { "type": "Point", "coordinates": [ -77.085888557325603, 39.1651969992662 ] } },
{ "type": "Feature", "properties": { "ACCT": "1359743", "Steet Name": "Prospect", "City": "TAKO", "ZIP": 20912, "Licence Type": "ACC", "Lic Status": "EX", "Point X": 1313395.0, "Point Y": 482199.0 }, "geometry": { "type": "Point", "coordinates": [ -76.996264764646284, 38.99070655896714 ] } },
{ "type": "Feature", "properties": { "ACCT": "64717", "Steet Name": "Stillwater", "City": "KENS", "ZIP": 20895, "Licence Type": "ACC", "Lic Status": "LI", "Point X": 1283512.0, "Point Y": 498626.0 }, "geometry": { "type": "Point", "coordinates": [ -77.101465541270883, 39.035766123229557 ] } },
{ "type": "Feature", "properties": { "ACCT": "1138893", "Steet Name": "Plyers Mill", "City": "SILV", "ZIP": 20902, "Licence Type": "ACC", "Lic Status": "LI", "Point X": 1296563.0, "Point Y": 496567.0 }, "geometry": { "type": "Point", "coordinates": [ -77.055515086234976, 39.03014357940755 ] } },
{ "type": "Feature", "properties": { "ACCT": "597523", "Steet Name": "Bellevue", "City": "BETH", "ZIP": 20814, "Licence Type": "ACC", "Lic Status": "LI", "Point X": 1284466.0, "Point Y": 490614.0 }, "geometry": { "type": "Point", "coordinates": [ -77.098076681975627, 39.013770568835128 ] } },
{ "type": "Feature", "properties": { "ACCT": "676233", "Steet Name": "Greenlawn", "City": "BETH", "ZIP": 20814, "Licence Type": "ACC", "Lic Status": "LI", "Point X": 1279076.0, "Point Y": 493148.0 }, "geometry": { "type": "Point", "coordinates": [ -77.117057739990898, 39.020710703552545 ] } },
{ "type": "Feature", "properties": { "ACCT": "1288920", "Steet Name": "Littleton", "City": "SILV", "ZIP": 20906, "Licence Type": "ACC", "Lic Status": "PE", "Point X": 1289645.0, "Point Y": 510751.0 }, "geometry": { "type": "Point", "coordinates": [ -77.079911685427874, 39.069074065280873 ] } },
{ "type": "Feature", "properties": { "ACCT": "2211578", "Steet Name": "Beethoven", "City": "SILV", "ZIP": 20904, "Licence Type": "ACC", "Lic Status": "PE", "Point X": 1328224.0, "Point Y": 510443.0 }, "geometry": { "type": "Point", "coordinates": [ -76.944031363706969, 39.068242293215704 ] } },
{ "type": "Feature", "properties": { "ACCT": "1056110", "Steet Name": "Ellsworth", "City": "SILV", "ZIP": 20910, "Licence Type": "ACC", "Lic Status": "LI", "Point X": 1306279.0, "Point Y": 486831.0 }, "geometry": { "type": "Point", "coordinates": [ -77.021304604983271, 39.003422768051486 ] } },
{ "type": "Feature", "properties": { "ACCT": "511230", "Steet Name": "Wellesley", "City": "GLEN", "ZIP": 20812, "Licence Type": "ACC", "Lic Status": "EX", "Point X": 1271229.0, "Point Y": 474744.0 }, "geometry": { "type": "Point", "coordinates": [ -77.144574644614011, 38.970147974669445 ] } },
{ "type": "Feature", "properties": { "ACCT": "107657", "Steet Name": "Whisperwood", "City": "ROCK", "ZIP": 20852, "Licence Type": "ACC", "Lic Status": "LI", "Point X": 1272533.0, "Point Y": 500062.0 }, "geometry": { "type": "Point", "coordinates": [ -77.140124833007434, 39.039669024415659 ] } },
{ "type": "Feature", "properties": { "ACCT": "113465", "Steet Name": "Seven Locks", "City": "POTO", "ZIP": 20854, "Licence Type": "ACC", "Lic Status": "LI", "Point X": 1266037.0, "Point Y": 505149.0 }, "geometry": { "type": "Point", "coordinates": [ -77.163027206525825, 39.053606624083926 ] } },
{ "type": "Feature", "properties": { "ACCT": "434016", "Steet Name": "Persimmon Tree", "City": "BETH", "ZIP": 20817, "Licence Type": "ACC", "Lic Status": "LI", "Point X": 1263606.0, "Point Y": 477499.0 }, "geometry": { "type": "Point", "coordinates": [ -77.171404857099304, 38.977676183119335 ] } },
{ "type": "Feature", "properties": { "ACCT": "1361917", "Steet Name": "Emily", "City": "KENS", "ZIP": 20895, "Licence Type": "ACC", "Lic Status": "EX", "Point X": 1291227.0, "Point Y": 500221.0 }, "geometry": { "type": "Point", "coordinates": [ -77.074309458479291, 39.040165870314539 ] } },
{ "type": "Feature", "properties": { "ACCT": "3174174", "Steet Name": "Allegheny", "City": "TAKO", "ZIP": 20912, "Licence Type": "ACC", "Lic Status": "EX", "Point X": 1310578.0, "Point Y": 475292.0 }, "geometry": { "type": "Point", "coordinates": [ -77.006174098842109, 38.971741833653539 ] } },
{ "type": "Feature", "properties": { "ACCT": "871965", "Steet Name": "Carteret", "City": "BETH", "ZIP": 20817, "Licence Type": "ACC", "Lic Status": "LI", "Point X": 1266627.0, "Point Y": 487873.0 }, "geometry": { "type": "Point", "coordinates": [ -77.160842407126736, 39.006175167770905 ] } },
{ "type": "Feature", "properties": { "ACCT": "1282626", "Steet Name": "Whitehall", "City": "SILV", "ZIP": 20901, "Licence Type": "ACC", "Lic Status": "PE", "Point X": 1304605.0, "Point Y": 496334.0 }, "geometry": { "type": "Point", "coordinates": [ -77.027205212364564, 39.029513839655074 ] } },
{ "type": "Feature", "properties": { "ACCT": "1079281", "Steet Name": "Maple", "City": "TAKO", "ZIP": 20912, "Licence Type": "ACC", "Lic Status": "EX", "Point X": 1308659.0, "Point Y": 477667.0 }, "geometry": { "type": "Point", "coordinates": [ -77.012925052470649, 38.978262352976799 ] } },
{ "type": "Feature", "properties": { "ACCT": "614413", "Steet Name": "Namakagan", "City": "BETH", "ZIP": 20816, "Licence Type": "ACC", "Lic Status": "EX", "Point X": 1279337.0, "Point Y": 471136.0 }, "geometry": { "type": "Point", "coordinates": [ -77.116040600290617, 38.960273207181935 ] } },
{ "type": "Feature", "properties": { "ACCT": "1064850", "Steet Name": "Sycamore", "City": "TAKO", "ZIP": 20912, "Licence Type": "ACC", "Lic Status": "EX", "Point X": 1310951.0, "Point Y": 476900.0 }, "geometry": { "type": "Point", "coordinates": [ -77.004862433160341, 38.976157004463616 ] } },
{ "type": "Feature", "properties": { "ACCT": "1158311", "Steet Name": "Grubb", "City": "CHEV", "ZIP": 20815, "Licence Type": "ACC", "Lic Status": "LI", "Point X": 1296287.0, "Point Y": 484192.0 }, "geometry": { "type": "Point", "coordinates": [ -77.05645972498391, 38.996165181224413 ] } },
{ "type": "Feature", "properties": { "ACCT": "331697", "Steet Name": "Fairhill", "City": "SILV", "ZIP": 20904, "Licence Type": "ACC", "Lic Status": "LI", "Point X": 1312291.0, "Point Y": 512825.0 }, "geometry": { "type": "Point", "coordinates": [ -77.000149115096562, 39.074795821656956 ] } },
{ "type": "Feature", "properties": { "ACCT": "1485465", "Steet Name": "Colebrook", "City": "POTO", "ZIP": 20854, "Licence Type": "ACC", "Lic Status": "LI", "Point X": 1252261.0, "Point Y": 500697.0 }, "geometry": { "type": "Point", "coordinates": [ -77.211501329173018, 39.041305328919989 ] } },
{ "type": "Feature", "properties": { "ACCT": "1133867", "Steet Name": "11th", "City": "SILV", "ZIP": 20903, "Licence Type": "ACC", "Lic Status": "PE", "Point X": 1315900.0, "Point Y": 485335.0 }, "geometry": { "type": "Point", "coordinates": [ -76.987449971643017, 38.999316468949175 ] } },
{ "type": "Feature", "properties": { "ACCT": "1118315", "Steet Name": "Lindell", "City": "SILV", "ZIP": 20902, "Licence Type": "ACC", "Lic Status": "LI", "Point X": 1297831.0, "Point Y": 505550.0 }, "geometry": { "type": "Point", "coordinates": [ -77.051069134908914, 39.054810002265903 ] } },
{ "type": "Feature", "properties": { "ACCT": "986827", "Steet Name": "Granville", "City": "SILV", "ZIP": 20901, "Licence Type": "ACC", "Lic Status": "LI", "Point X": 1307329.0, "Point Y": 490849.0 }, "geometry": { "type": "Point", "coordinates": [ -77.017612485758704, 39.01445558325171 ] } },
{ "type": "Feature", "properties": { "ACCT": "1065810", "Steet Name": "Sligo Creek", "City": "TAKO", "ZIP": 20912, "Licence Type": "ACC", "Lic Status": "EX", "Point X": 1311051.0, "Point Y": 481222.0 }, "geometry": { "type": "Point", "coordinates": [ -77.004511428920694, 38.988023976976585 ] } },
{ "type": "Feature", "properties": { "ACCT": "3516386", "Steet Name": "Kemp Mill", "City": "SILV", "ZIP": 20902, "Licence Type": "ACC", "Lic Status": "LI", "Point X": 1305183.0, "Point Y": 504097.0 }, "geometry": { "type": "Point", "coordinates": [ -77.025178078834827, 39.050828976723288 ] } },
{ "type": "Feature", "properties": { "ACCT": "1894951", "Steet Name": "Wilderness Walk", "City": "GAIT", "ZIP": 20882, "Licence Type": "ACC", "Lic Status": "LI", "Point X": 1254159.0, "Point Y": 572921.0 }, "geometry": { "type": "Point", "coordinates": [ -77.205391032935694, 39.23961559770617 ] } },
{ "type": "Feature", "properties": { "ACCT": "2802571", "Steet Name": "Riviera", "City": "SILV", "ZIP": 20904, "Licence Type": "ACC", "Lic Status": "EX", "Point X": 1305785.0, "Point Y": 510812.0 }, "geometry": { "type": "Point", "coordinates": [ -77.023064263067894, 39.069266544624824 ] } },
{ "type": "Feature", "properties": { "ACCT": "1316128", "Steet Name": "Holdridge", "City": "SILV", "ZIP": 20906, "Licence Type": "ACC", "Lic Status": "LI", "Point X": 1292920.0, "Point Y": 512150.0 }, "geometry": { "type": "Point", "coordinates": [ -77.068380343673098, 39.07292254137711 ] } },
{ "type": "Feature", "properties": { "ACCT": "1061630", "Steet Name": "Piney Branch", "City": "TAKO", "ZIP": 20912, "Licence Type": "ACC", "Lic Status": "EX", "Point X": 1307308.0, "Point Y": 477777.0 }, "geometry": { "type": "Point", "coordinates": [ -77.01767748531347, 38.978563759536044 ] } },
{ "type": "Feature", "properties": { "ACCT": "2032837", "Steet Name": "Summertree", "City": "ROCK", "ZIP": 20853, "Licence Type": "ACC", "Lic Status": "EX", "Point X": 1285188.0, "Point Y": 532521.0 }, "geometry": { "type": "Point", "coordinates": [ -77.095690266581016, 39.128834820620604 ] } },
{ "type": "Feature", "properties": { "ACCT": "1004880", "Steet Name": "Holman", "City": "SILV", "ZIP": 20910, "Licence Type": "ACC", "Lic Status": "EX", "Point X": 1297829.0, "Point Y": 491700.0 }, "geometry": { "type": "Point", "coordinates": [ -77.051048904303684, 39.016782356525404 ] } },
{ "type": "Feature", "properties": { "ACCT": "1038510", "Steet Name": "Colesville", "City": "SILV", "ZIP": 20901, "Licence Type": "ACC", "Lic Status": "PE", "Point X": 1307034.0, "Point Y": 488566.0 }, "geometry": { "type": "Point", "coordinates": [ -77.018649081226698, 39.008187004888214 ] } },
{ "type": "Feature", "properties": { "ACCT": "502406", "Steet Name": "Mohican", "City": "BETH", "ZIP": 20816, "Licence Type": "ACC", "Lic Status": "EX", "Point X": 1275096.0, "Point Y": 471439.0 }, "geometry": { "type": "Point", "coordinates": [ -77.130956742270541, 38.961089406843683 ] } },
{ "type": "Feature", "properties": { "ACCT": "382481", "Steet Name": "Aylesbury", "City": "SILV", "ZIP": 20905, "Licence Type": "ACC", "Lic Status": "LI", "Point X": 1319461.0, "Point Y": 523821.0 }, "geometry": { "type": "Point", "coordinates": [ -76.974882624207382, 39.104984237917911 ] } },
{ "type": "Feature", "properties": { "ACCT": "1079235", "Steet Name": "Sycamore", "City": "TAKO", "ZIP": 20912, "Licence Type": "ACC", "Lic Status": "EX", "Point X": 1311029.0, "Point Y": 476773.0 }, "geometry": { "type": "Point", "coordinates": [ -77.004588041373367, 38.975808309951745 ] } }
]
}
