{
"type": "FeatureCollection",
"crs": { "type": "name", "properties": { "name": "urn:ogc:def:crs:OGC:1.3:CRS84" } },
"features": [
{ "type": "Feature", "properties": { "ACCT": "1553387", "Steet Name": "Joshua Tree", "City": "GAIT", "ZIP": 20878, "Licence Type": "ACC3", "Lic Status": "LI", "Point X": 1245936.0, "Point Y": 522754.0 }, "geometry": { "type": "Point", "coordinates": [ -77.233969188930899, 39.101823718740235 ] } },
{ "type": "Feature", "properties": { "ACCT": "856140", "Steet Name": "Spring Knoll", "City": "ROCK", "ZIP": 20854, "Licence Type": "ACC3", "Lic Status": "LI", "Point X": 1249107.0, "Point Y": 494799.0 }, "geometry": { "type": "Point", "coordinates": [ -77.22255519416295, 39.025090764891367 ] } },
{ "type": "Feature", "properties": { "ACCT": "2335834", "Steet Name": "Cloverdale", "City": "GERM", "ZIP": 20874, "Licence Type": "ACC3", "Lic Status": "LI", "Point X": 1233810.0, "Point Y": 556918.0 }, "geometry": { "type": "Point", "coordinates": [ -77.277063604391529, 39.195531003683122 ] } },
{ "type": "Feature", "properties": { "ACCT": "3149408", "Steet Name": "Lake Placid", "City": "GERM", "ZIP": 20874, "Licence Type": "ACC3", "Lic Status": "FD", "Point X": 1233708.0, "Point Y": 546169.0 }, "geometry": { "type": "Point", "coordinates": [ -77.277308290333181, 39.166018028259657 ] } },
{ "type": "Feature", "properties": { "ACCT": "3170542", "Steet Name": "Allegheny", "City": "TAKO", "ZIP": 20912, "Licence Type": "ACC3", "Lic Status": "FC", "Point X": 1310739.0, "Point Y": 474877.0 }, "geometry": { "type": "Point", "coordinates": [ -77.005607717815693, 38.970602390029462 ] } },
{ "type": "Feature", "properties": { "ACCT": "1828488", "Steet Name": "Granby", "City": "ROCK", "ZIP": 20855, "Licence Type": "ACC3", "Lic Status": "LI", "Point X": 1277101.0, "Point Y": 546463.0 }, "geometry": { "type": "Point", "coordinates": [ -77.124264695019235, 39.167087274561759 ] } },
{ "type": "Feature", "properties": { "ACCT": "509293", "Steet Name": "Mohican", "City": "BETH", "ZIP": 20816, "Licence Type": "ACC3", "Lic Status": "LI", "Point X": 1275813.0, "Point Y": 473055.0 }, "geometry": { "type": "Point", "coordinates": [ -77.128443186835625, 38.965529283477359 ] } },
{ "type": "Feature", "properties": { "ACCT": "2304946", "Steet Name": "Rolling", "City": "DERW", "ZIP": 20855, "Licence Type": "ACC3", "Lic Status": "FC", "Point X": 1276956.0, "Point Y": null }, "geometry": null },
{ "type": "Feature", "properties": { "ACCT": "572614", "Steet Name": "Old Georgetown", "City": "BETH", "ZIP": 20814, "Licence Type": "ACC3", "Lic Status": "LI", "Point X": 1279554.0, "Point Y": 489272.0 }, "geometry": { "type": "Point", "coordinates": [ -77.115358058177947, 39.01007008522614 ] } },
{ "type": "Feature", "properties": { "ACCT": "2997217", "Steet Name": "Yellow Leaf", "City": "GERM", "ZIP": 20876, "Licence Type": "ACC3", "Lic Status": "LI", "Point X": 1247438.0, "Point Y": 553377.0 }, "geometry": { "type": "Point", "coordinates": [ -77.228947131744405, 39.185912660356593 ] } },
{ "type": "Feature", "properties": { "ACCT": "93366", "Steet Name": "Jubal Early", "City": "ROCK", "ZIP": 20854, "Licence Type": "ACC3", "Lic Status": "LI", "Point X": 1264003.0, "Point Y": 505509.0 }, "geometry": { "type": "Point", "coordinates": [ -77.170192050510551, 39.054584870167879 ] } },
{ "type": "Feature", "properties": { "ACCT": "92566", "Steet Name": "Inspection House", "City": "ROCK", "ZIP": 20854, "Licence Type": "ACC3", "Lic Status": "LI", "Point X": 1265843.0, "Point Y": 505413.0 }, "geometry": { "type": "Point", "coordinates": [ -77.163712020904796, 39.054330525900397 ] } },
{ "type": "Feature", "properties": { "ACCT": "2873896", "Steet Name": "Watkins", "City": "GAIT", "ZIP": 20882, "Licence Type": "ACC3", "Lic Status": "LI", "Point X": 1260546.0, "Point Y": 571906.0 }, "geometry": { "type": "Point", "coordinates": [ -77.182833897081366, 39.236866169376704 ] } },
{ "type": "Feature", "properties": { "ACCT": "669168", "Steet Name": "Buttermere", "City": "BETH", "ZIP": 20817, "Licence Type": "ACC3", "Lic Status": "LI", "Point X": 1272562.0, "Point Y": 492501.0 }, "geometry": { "type": "Point", "coordinates": [ -77.139981913938868, 39.018909065182903 ] } },
{ "type": "Feature", "properties": { "ACCT": "587581", "Steet Name": "Bradley", "City": "BETH", "ZIP": 20817, "Licence Type": "ACC3", "Lic Status": "LI", "Point X": 1277517.0, "Point Y": 483565.0 }, "geometry": { "type": "Point", "coordinates": [ -77.122499773212212, 38.994393110772151 ] } },
{ "type": "Feature", "properties": { "ACCT": "1150793", "Steet Name": "Kenmore", "City": "KENS", "ZIP": 20895, "Licence Type": "ACC3", "Lic Status": "LI", "Point X": 1293033.0, "Point Y": 491265.0 }, "geometry": { "type": "Point", "coordinates": [ -77.067927580645261, 39.015579400308937 ] } },
{ "type": "Feature", "properties": { "ACCT": "437544", "Steet Name": "Le Velle", "City": "CHEV", "ZIP": 20815, "Licence Type": "ACC3", "Lic Status": "LI", "Point X": 1293863.0, "Point Y": 487842.0 }, "geometry": { "type": "Point", "coordinates": [ -77.064997816432438, 39.006182553211268 ] } },
{ "type": "Feature", "properties": { "ACCT": "1246606", "Steet Name": "Janet", "City": "SILV", "ZIP": 20906, "Licence Type": "ACC3", "Lic Status": "PE", "Point X": 1291483.0, "Point Y": 509540.0 }, "geometry": { "type": "Point", "coordinates": [ -77.073434547681131, 39.065753311864583 ] } },
{ "type": "Feature", "properties": { "ACCT": "1169280", "Steet Name": "Sigsbee", "City": "WHEA", "ZIP": 20906, "Licence Type": "ACC3", "Lic Status": "PE", "Point X": 1288071.0, "Point Y": 505811.0 }, "geometry": { "type": "Point", "coordinates": [ -77.085439259990054, 39.055506585111054 ] } },
{ "type": "Feature", "properties": { "ACCT": "590533", "Steet Name": "Maple", "City": "BETH", "ZIP": 20814, "Licence Type": "ACC3", "Lic Status": "LI", "Point X": 1287612.0, "Point Y": 482831.0 }, "geometry": { "type": "Point", "coordinates": [ -77.08697851429605, 38.992409567523865 ] } },
{ "type": "Feature", "properties": { "ACCT": "1305901", "Steet Name": "Eastland", "City": "ROCK", "ZIP": 20853, "Licence Type": "ACC3", "Lic Status": "PE", "Point X": 1286867.0, "Point Y": 515939.0 }, "geometry": { "type": "Point", "coordinates": [ -77.089714166682938, 39.083311423138902 ] } },
{ "type": "Feature", "properties": { "ACCT": "498622", "Steet Name": "Chelsea", "City": "BETH", "ZIP": 20814, "Licence Type": "ACC3", "Lic Status": "LI", "Point X": 1285765.0, "Point Y": 483751.0 }, "geometry": { "type": "Point", "coordinates": [ -77.093480232828213, 38.994930600956948 ] } },
{ "type": "Feature", "properties": { "ACCT": "1139818", "Steet Name": "Saul", "City": "KENS", "ZIP": 20895, "Licence Type": "ACC3", "Lic Status": "LI", "Point X": 1285928.0, "Point Y": 492712.0 }, "geometry": { "type": "Point", "coordinates": [ -77.092938819568758, 39.019535223218362 ] } },
{ "type": "Feature", "properties": { "ACCT": "649822", "Steet Name": "Oldchester", "City": "BETH", "ZIP": 20814, "Licence Type": "ACC3", "Lic Status": "LI", "Point X": 1280486.0, "Point Y": 480016.0 }, "geometry": { "type": "Point", "coordinates": [ -77.112038159870579, 38.98465908106364 ] } },
{ "type": "Feature", "properties": { "ACCT": "543840", "Steet Name": "West Virginia", "City": "BETH", "ZIP": 20814, "Licence Type": "ACC3", "Lic Status": "LI", "Point X": 1286217.0, "Point Y": 482272.0 }, "geometry": { "type": "Point", "coordinates": [ -77.09188464169614, 38.990870967059983 ] } },
{ "type": "Feature", "properties": { "ACCT": "1303172", "Steet Name": "Iris", "City": "ROCK", "ZIP": 20853, "Licence Type": "ACC3", "Lic Status": "PE", "Point X": 1285026.0, "Point Y": 514024.0 }, "geometry": { "type": "Point", "coordinates": [ -77.096192627116068, 39.078048357979149 ] } },
{ "type": "Feature", "properties": { "ACCT": "500384", "Steet Name": "Windsor", "City": "BETH", "ZIP": 20814, "Licence Type": "ACC3", "Lic Status": "LI", "Point X": 1285679.0, "Point Y": 483832.0 }, "geometry": { "type": "Point", "coordinates": [ -77.093783114954348, 38.995152760561822 ] } },
{ "type": "Feature", "properties": { "ACCT": "3163752", "Steet Name": "Poplar", "City": "TAKO", "ZIP": 20912, "Licence Type": "ACC3", "Lic Status": "PE", "Point X": 1311963.0, "Point Y": 474939.0 }, "geometry": { "type": "Point", "coordinates": [ -77.001302568488029, 38.970772751639842 ] } },
{ "type": "Feature", "properties": { "ACCT": "344644", "Steet Name": "Falmouth", "City": "SILV", "ZIP": 20904, "Licence Type": "ACC3", "Lic Status": "LI", "Point X": 1309933.0, "Point Y": 510374.0 }, "geometry": { "type": "Point", "coordinates": [ -77.008454209220048, 39.068065912399796 ] } },
{ "type": "Feature", "properties": { "ACCT": "1056028", "Steet Name": "Colesville", "City": "SILV", "ZIP": 20910, "Licence Type": "ACC3", "Lic Status": "LI", "Point X": 1305635.0, "Point Y": 486902.0 }, "geometry": { "type": "Point", "coordinates": [ -77.023570842336184, 39.003617277974811 ] } },
{ "type": "Feature", "properties": { "ACCT": "1418730", "Steet Name": "Louis", "City": "SILV", "ZIP": 20910, "Licence Type": "ACC3", "Lic Status": "LI", "Point X": 1299093.0, "Point Y": 487410.0 }, "geometry": { "type": "Point", "coordinates": [ -77.046592472011596, 39.005005189280666 ] } },
{ "type": "Feature", "properties": { "ACCT": "2258768", "Steet Name": "Ewood", "City": "SILV", "ZIP": 20906, "Licence Type": "ACC3", "Lic Status": "LI", "Point X": 1298349.0, "Point Y": 511712.0 }, "geometry": { "type": "Point", "coordinates": [ -77.04925673618834, 39.071729548568236 ] } },
{ "type": "Feature", "properties": { "ACCT": "1089941", "Steet Name": "Grace Church", "City": "SILV", "ZIP": 20910, "Licence Type": "ACC3", "Lic Status": "LI", "Point X": 1299775.0, "Point Y": 486434.0 }, "geometry": { "type": "Point", "coordinates": [ -77.044190865197692, 39.002326319784409 ] } },
{ "type": "Feature", "properties": { "ACCT": "1431086", "Steet Name": "Noyes", "City": "SILV", "ZIP": 20910, "Licence Type": "ACC3", "Lic Status": "LI", "Point X": 1304558.0, "Point Y": 485903.0 }, "geometry": { "type": "Point", "coordinates": [ -77.027359656439188, 39.000873500387016 ] } },
{ "type": "Feature", "properties": { "ACCT": "1057991", "Steet Name": "Tulip", "City": "TAKO", "ZIP": 20912, "Licence Type": "ACC3", "Lic Status": "PE", "Point X": 1309080.0, "Point Y": 476951.0 }, "geometry": { "type": "Point", "coordinates": [ -77.011443802093893, 38.976296577024122 ] } },
{ "type": "Feature", "properties": { "ACCT": "1459752", "Steet Name": "Arbor View", "City": "SILV", "ZIP": 20902, "Licence Type": "ACC3", "Lic Status": "PE", "Point X": 1302933.0, "Point Y": 508400.0 }, "geometry": { "type": "Point", "coordinates": [ -77.033106375835871, 39.062641603863732 ] } },
{ "type": "Feature", "properties": { "ACCT": "3175500", "Steet Name": "Westmoreland", "City": "TAKO", "ZIP": 20912, "Licence Type": "ACC3", "Lic Status": "LI", "Point X": 1310862.0, "Point Y": 474281.0 }, "geometry": { "type": "Point", "coordinates": [ -77.00517497336844, 38.968965962767598 ] } },
{ "type": "Feature", "properties": { "ACCT": "1032466", "Steet Name": "Cavalier", "City": "SILV", "ZIP": 20901, "Licence Type": "ACC3", "Lic Status": "LI", "Point X": 1308041.0, "Point Y": 497454.0 }, "geometry": { "type": "Point", "coordinates": [ -77.015110487177637, 39.032591189421176 ] } },
{ "type": "Feature", "properties": { "ACCT": "1058780", "Steet Name": "Sycamore", "City": "TAKO", "ZIP": 20912, "Licence Type": "ACC3", "Lic Status": "LI", "Point X": 1310905.0, "Point Y": 477362.0 }, "geometry": { "type": "Point", "coordinates": [ -77.005024330159515, 38.977425516991218 ] } },
{ "type": "Feature", "properties": { "ACCT": "666826", "Steet Name": "Sinnott", "City": "BETH", "ZIP": 20817, "Licence Type": "ACC3", "Lic Status": "PE", "Point X": 1276063.0, "Point Y": 493564.0 }, "geometry": { "type": "Point", "coordinates": [ -77.127664803101794, 39.021841819835444 ] } },
{ "type": "Feature", "properties": { "ACCT": "344074", "Steet Name": "Eldrid", "City": "SILV", "ZIP": 20904, "Licence Type": "ACC3", "Lic Status": "LI", "Point X": 1309408.0, "Point Y": 509443.0 }, "geometry": { "type": "Point", "coordinates": [ -77.010302940829192, 39.065509555344406 ] } },
{ "type": "Feature", "properties": { "ACCT": "1324607", "Steet Name": "Hyde", "City": "SILV", "ZIP": 20902, "Licence Type": "ACC3", "Lic Status": "PE", "Point X": 1306682.0, "Point Y": 502109.0 }, "geometry": { "type": "Point", "coordinates": [ -77.019898205978265, 39.045371598805055 ] } },
{ "type": "Feature", "properties": { "ACCT": "1450728", "Steet Name": "Queensguard", "City": "SILV", "ZIP": 20906, "Licence Type": "ACC3", "Lic Status": "LI", "Point X": 1300726.0, "Point Y": 517399.0 }, "geometry": { "type": "Point", "coordinates": [ -77.040893251008029, 39.087347288442317 ] } },
{ "type": "Feature", "properties": { "ACCT": "253732", "Steet Name": "Schindler", "City": "SILV", "ZIP": 20903, "Licence Type": "ACC3", "Lic Status": "FC", "Point X": 1315135.0, "Point Y": 496411.0 }, "geometry": { "type": "Point", "coordinates": [ -76.990137566020593, 39.029728003522166 ] } },
{ "type": "Feature", "properties": { "ACCT": "1148813", "Steet Name": "Sundale", "City": "SILV", "ZIP": 20910, "Licence Type": "ACC3", "Lic Status": "LI", "Point X": 1299059.0, "Point Y": 485622.0 }, "geometry": { "type": "Point", "coordinates": [ -77.046708897976004, 39.000095833624201 ] } },
{ "type": "Feature", "properties": { "ACCT": "711100", "Steet Name": "Norbrook", "City": "OLNE", "ZIP": 20832, "Licence Type": "ACC3", "Lic Status": "PE", "Point X": 1294822.0, "Point Y": 534056.0 }, "geometry": { "type": "Point", "coordinates": [ -77.06173303568093, 39.133072148655259 ] } },
{ "type": "Feature", "properties": { "ACCT": "3162861", "Steet Name": "Central", "City": "TAKO", "ZIP": 20912, "Licence Type": "ACC3", "Lic Status": "PE", "Point X": 1313471.0, "Point Y": 479863.0 }, "geometry": { "type": "Point", "coordinates": [ -76.995997736149249, 38.98429257877396 ] } },
{ "type": "Feature", "properties": { "ACCT": "337808", "Steet Name": "Solmar", "City": "SILV", "ZIP": 20904, "Licence Type": "ACC3", "Lic Status": "LI", "Point X": 1321758.0, "Point Y": 513937.0 }, "geometry": { "type": "Point", "coordinates": [ -76.966800832197777, 39.07784428300041 ] } },
{ "type": "Feature", "properties": { "ACCT": "250886", "Steet Name": "Briggs Chaney", "City": "SILV", "ZIP": 20905, "Licence Type": "ACC3", "Lic Status": "LI", "Point X": 1324536.0, "Point Y": 517023.0 }, "geometry": { "type": "Point", "coordinates": [ -76.957009979793639, 39.086314174417211 ] } },
{ "type": "Feature", "properties": { "ACCT": "376252", "Steet Name": "Cabinwood", "City": "SILV", "ZIP": 20904, "Licence Type": "ACC3", "Lic Status": "LI", "Point X": 1316395.0, "Point Y": 511548.0 }, "geometry": { "type": "Point", "coordinates": [ -76.985693760887671, 39.071288745821711 ] } },
{ "type": "Feature", "properties": { "ACCT": "3159841", "Steet Name": "Forest Dale", "City": "SILV", "ZIP": 20903, "Licence Type": "ACC3", "Lic Status": "LI", "Point X": 1321388.0, "Point Y": 494174.0 }, "geometry": { "type": "Point", "coordinates": [ -76.968128492920457, 39.023581983713193 ] } },
{ "type": "Feature", "properties": { "ACCT": "337182", "Steet Name": "Solmar", "City": "SILV", "ZIP": 20904, "Licence Type": "ACC3", "Lic Status": "LI", "Point X": 1321040.0, "Point Y": 513676.0 }, "geometry": { "type": "Point", "coordinates": [ -76.969330355175728, 39.07712835731968 ] } },
{ "type": "Feature", "properties": { "ACCT": "321528", "Steet Name": "Batchelors", "City": "SILV", "ZIP": 20904, "Licence Type": "ACC3", "Lic Status": "LI", "Point X": 1322847.0, "Point Y": 515437.0 }, "geometry": { "type": "Point", "coordinates": [ -76.962962596403131, 39.081961609143491 ] } },
{ "type": "Feature", "properties": { "ACCT": "2187045", "Steet Name": "Rising Wind", "City": "SILV", "ZIP": 20905, "Licence Type": "ACC3", "Lic Status": "LI", "Point X": 1316828.0, "Point Y": 521224.0 }, "geometry": { "type": "Point", "coordinates": [ -76.984162710554898, 39.097855440145821 ] } },
{ "type": "Feature", "properties": { "ACCT": "90487", "Steet Name": "White Flint", "City": "KENS", "ZIP": 20895, "Licence Type": "ACC3", "Lic Status": "LI", "Point X": 1282411.0, "Point Y": 499963.0 }, "geometry": { "type": "Point", "coordinates": [ -77.105347041639533, 39.039433667501861 ] } },
{ "type": "Feature", "properties": { "ACCT": "1141036", "Steet Name": "Parkwood", "City": "BETH", "ZIP": 20814, "Licence Type": "ACC3", "Lic Status": "LI", "Point X": 1286501.0, "Point Y": 490328.0 }, "geometry": { "type": "Point", "coordinates": [ -77.090913676983206, 39.012991085092423 ] } },
{ "type": "Feature", "properties": { "ACCT": "1040730", "Steet Name": "Silver Spring", "City": "SILV", "ZIP": 20910, "Licence Type": "ACC3", "Lic Status": "LI", "Point X": 1306244.0, "Point Y": 482451.0 }, "geometry": { "type": "Point", "coordinates": [ -77.021424149382597, 38.991396574320831 ] } },
{ "type": "Feature", "properties": { "ACCT": "1092972", "Steet Name": "Arcola", "City": "SILV", "ZIP": 20902, "Licence Type": "ACC3", "Lic Status": "PE", "Point X": 1298563.0, "Point Y": 502887.0 }, "geometry": { "type": "Point", "coordinates": [ -77.048486458572441, 39.047499382057644 ] } },
{ "type": "Feature", "properties": { "ACCT": "1039002", "Steet Name": "Thayer", "City": "SILV", "ZIP": 20910, "Licence Type": "ACC3", "Lic Status": "FD", "Point X": 1305896.0, "Point Y": 482933.0 }, "geometry": { "type": "Point", "coordinates": [ -77.02264894127805, 38.992719773117003 ] } },
{ "type": "Feature", "properties": { "ACCT": "1224928", "Steet Name": "Connecticut", "City": "SILV", "ZIP": 20906, "Licence Type": "ACC3", "Lic Status": "LI", "Point X": 1291351.0, "Point Y": 506745.0 }, "geometry": { "type": "Point", "coordinates": [ -77.073891481454808, 39.058078895091356 ] } },
{ "type": "Feature", "properties": { "ACCT": "399993", "Steet Name": "Marmary", "City": "GAIT", "ZIP": 20878, "Licence Type": "ACC3", "Lic Status": "LI", "Point X": 1241987.0, "Point Y": 534975.0 }, "geometry": { "type": "Point", "coordinates": [ -77.248001496400846, 39.135349270314322 ] } },
{ "type": "Feature", "properties": { "ACCT": "697474", "Steet Name": "Farnham", "City": "BETH", "ZIP": 20814, "Licence Type": "ACC3", "Lic Status": "LI", "Point X": 1278535.0, "Point Y": 494025.0 }, "geometry": { "type": "Point", "coordinates": [ -77.118965949251006, 39.023116748768892 ] } },
{ "type": "Feature", "properties": { "ACCT": "93446", "Steet Name": "Smoketree", "City": "POTO", "ZIP": 20854, "Licence Type": "ACC3", "Lic Status": "LI", "Point X": 1265623.0, "Point Y": 505095.0 }, "geometry": { "type": "Point", "coordinates": [ -77.164484714097554, 39.053456319206433 ] } },
{ "type": "Feature", "properties": { "ACCT": "1342253", "Steet Name": "Adrian", "City": "ROCK", "ZIP": 20853, "Licence Type": "ACC3", "Lic Status": "PE", "Point X": 1286687.0, "Point Y": 507850.0 }, "geometry": { "type": "Point", "coordinates": [ -77.09032008588845, 39.06110133496199 ] } },
{ "type": "Feature", "properties": { "ACCT": "906735", "Steet Name": "Sorrel", "City": "POTO", "ZIP": 20854, "Licence Type": "ACC3", "Lic Status": "LI", "Point X": 1255392.0, "Point Y": 493639.0 }, "geometry": { "type": "Point", "coordinates": [ -77.200423253527518, 39.021945756262255 ] } },
{ "type": "Feature", "properties": { "ACCT": "1293595", "Steet Name": "Terrace", "City": "CHEV", "ZIP": 20815, "Licence Type": "ACC3", "Lic Status": "LI", "Point X": 1295206.0, "Point Y": 483910.0 }, "geometry": { "type": "Point", "coordinates": [ -77.06026261472357, 38.995388995835988 ] } },
{ "type": "Feature", "properties": { "ACCT": "444232", "Steet Name": "Honeywell", "City": "BETH", "ZIP": 20814, "Licence Type": "ACC3", "Lic Status": "LI", "Point X": 1281172.0, "Point Y": 479319.0 }, "geometry": { "type": "Point", "coordinates": [ -77.109621886068794, 38.982747610017995 ] } },
{ "type": "Feature", "properties": { "ACCT": "3388132", "Steet Name": "Norbeck Farm", "City": "OLNE", "ZIP": 20832, "Licence Type": "ACC3", "Lic Status": "FC", "Point X": 1298950.0, "Point Y": 532411.0 }, "geometry": { "type": "Point", "coordinates": [ -77.047177524688564, 39.12856236982433 ] } },
{ "type": "Feature", "properties": { "ACCT": "2771081", "Steet Name": "Chinaberry", "City": "NO P", "ZIP": 20878, "Licence Type": "ACC3", "Lic Status": "LI", "Point X": 1240137.0, "Point Y": 525109.0 }, "geometry": { "type": "Point", "coordinates": [ -77.254426580533817, 39.10824707407366 ] } },
{ "type": "Feature", "properties": { "ACCT": "313175", "Steet Name": "La Grande", "City": "SILV", "ZIP": 20903, "Licence Type": "ACC3", "Lic Status": "LI", "Point X": 1315669.0, "Point Y": 494927.0 }, "geometry": { "type": "Point", "coordinates": [ -76.988258450042636, 39.025653235698634 ] } },
{ "type": "Feature", "properties": { "ACCT": "1395615", "Steet Name": "Arcola", "City": "SILV", "ZIP": 20902, "Licence Type": "ACC3", "Lic Status": "LI", "Point X": 1301454.0, "Point Y": 502923.0 }, "geometry": { "type": "Point", "coordinates": [ -77.038307067803302, 39.047601999663733 ] } },
{ "type": "Feature", "properties": { "ACCT": "1524055", "Steet Name": "Darnestown", "City": "DARN", "ZIP": 20878, "Licence Type": "ACC3", "Lic Status": "FD", "Point X": 1231252.0, "Point Y": 524113.0 }, "geometry": { "type": "Point", "coordinates": [ -77.285726966139421, 39.105440262723 ] } },
{ "type": "Feature", "properties": { "ACCT": "1091170", "Steet Name": "1st", "City": "SILV", "ZIP": 20910, "Licence Type": "ACC3", "Lic Status": "FC", "Point X": 1301791.0, "Point Y": 486313.0 }, "geometry": { "type": "Point", "coordinates": [ -77.037096695423784, 39.001996554751187 ] } },
{ "type": "Feature", "properties": { "ACCT": "367361", "Steet Name": "Wellwood", "City": "SILV", "ZIP": 20905, "Licence Type": "ACC3", "Lic Status": "LI", "Point X": 1309419.0, "Point Y": 521816.0 }, "geometry": { "type": "Point", "coordinates": [ -77.010269101182459, 39.09948147880354 ] } },
{ "type": "Feature", "properties": { "ACCT": "3144851", "Steet Name": "Kenton", "City": "SILV", "ZIP": 20902, "Licence Type": "ACC3", "Lic Status": "FD", "Point X": 1293477.0, "Point Y": 500700.0 }, "geometry": { "type": "Point", "coordinates": [ -77.066389071105377, 39.041485809283095 ] } },
{ "type": "Feature", "properties": { "ACCT": "4133", "Steet Name": "Warfield", "City": "GAIT", "ZIP": 20882, "Licence Type": "ACC3", "Lic Status": "FC", "Point X": 1263683.0, "Point Y": 555111.0 }, "geometry": { "type": "Point", "coordinates": [ -77.171647333786851, 39.190771340309794 ] } },
{ "type": "Feature", "properties": { "ACCT": "2491894", "Steet Name": "Orchard View", "City": "GAIT", "ZIP": 20878, "Licence Type": "ACC3", "Lic Status": "LI", "Point X": 1240896.0, "Point Y": 530713.0 }, "geometry": { "type": "Point", "coordinates": [ -77.251806282401617, 39.123639289119858 ] } },
{ "type": "Feature", "properties": { "ACCT": "433650", "Steet Name": "Acacia", "City": "BETH", "ZIP": 20814, "Licence Type": "ACC3", "Lic Status": "LI", "Point X": 1284010.0, "Point Y": 488355.0 }, "geometry": { "type": "Point", "coordinates": [ -77.099672852945858, 39.00756669454799 ] } },
{ "type": "Feature", "properties": { "ACCT": "1336797", "Steet Name": "Admiralty", "City": "SILV", "ZIP": 20910, "Licence Type": "ACC3", "Lic Status": "LI", "Point X": 1301407.0, "Point Y": 491002.0 }, "geometry": { "type": "Point", "coordinates": [ -77.038454877102922, 39.014870680737701 ] } },
{ "type": "Feature", "properties": { "ACCT": "1279823", "Steet Name": "Harlan", "City": "ROCK", "ZIP": 20853, "Licence Type": "ACC3", "Lic Status": "FD", "Point X": 1285790.0, "Point Y": 513886.0 }, "geometry": { "type": "Point", "coordinates": [ -77.09350086987763, 39.077671637588416 ] } },
{ "type": "Feature", "properties": { "ACCT": "2553532", "Steet Name": "Cinnabar", "City": "GAIT", "ZIP": 20879, "Licence Type": "ACC3", "Lic Status": "FC", "Point X": 1268436.0, "Point Y": 552947.0 }, "geometry": { "type": "Point", "coordinates": [ -77.154864956191659, 39.184853258867456 ] } },
{ "type": "Feature", "properties": { "ACCT": "848093", "Steet Name": "Old Seven Locks", "City": "BETH", "ZIP": 20817, "Licence Type": "ACC3", "Lic Status": "LI", "Point X": 1267138.0, "Point Y": 483224.0 }, "geometry": { "type": "Point", "coordinates": [ -77.159015683896158, 38.993412886534301 ] } },
{ "type": "Feature", "properties": { "ACCT": "668027", "Steet Name": "Loring", "City": "BETH", "ZIP": 20817, "Licence Type": "ACC3", "Lic Status": "LI", "Point X": 1273864.0, "Point Y": 483426.0 }, "geometry": { "type": "Point", "coordinates": [ -77.135351953840271, 38.993997293076433 ] } },
{ "type": "Feature", "properties": { "ACCT": "755694", "Steet Name": "Powder House", "City": "ROCK", "ZIP": 20853, "Licence Type": "ACC3", "Lic Status": "PE", "Point X": 1285533.0, "Point Y": 533545.0 }, "geometry": { "type": "Point", "coordinates": [ -77.094477840559534, 39.131647318266594 ] } },
{ "type": "Feature", "properties": { "ACCT": "1245362", "Steet Name": "Bond", "City": "SILV", "ZIP": 20902, "Licence Type": "ACC3", "Lic Status": "LI", "Point X": 1294140.0, "Point Y": 506265.0 }, "geometry": { "type": "Point", "coordinates": [ -77.064068543215484, 39.056766762423841 ] } },
{ "type": "Feature", "properties": { "ACCT": "573403", "Steet Name": "Wyngate", "City": "BETH", "ZIP": 20817, "Licence Type": "ACC3", "Lic Status": "LI", "Point X": 1277781.0, "Point Y": 489359.0 }, "geometry": { "type": "Point", "coordinates": [ -77.121598056098875, 39.010302642349949 ] } },
{ "type": "Feature", "properties": { "ACCT": "100543", "Steet Name": "Raymond", "City": "POTO", "ZIP": 20854, "Licence Type": "ACC3", "Lic Status": "LI", "Point X": 1263715.0, "Point Y": 500902.0 }, "geometry": { "type": "Point", "coordinates": [ -77.171175800670156, 39.041934107338925 ] } },
{ "type": "Feature", "properties": { "ACCT": "U 474660", "Steet Name": "Maple", "City": "BETH", "ZIP": 20814, "Licence Type": "ACC3", "Lic Status": "LI", "Point X": 1285903.0, "Point Y": 482617.0 }, "geometry": { "type": "Point", "coordinates": [ -77.092990618132731, 38.991817361705458 ] } },
{ "type": "Feature", "properties": { "ACCT": "947815", "Steet Name": "Moyer", "City": "DAMA", "ZIP": 20872, "Licence Type": "ACC3", "Lic Status": "FC", "Point X": 1255092.0, "Point Y": 582503.0 }, "geometry": { "type": "Point", "coordinates": [ -77.202171904389473, 39.265928894777957 ] } },
{ "type": "Feature", "properties": { "ACCT": "529314", "Steet Name": "Rosedale", "City": "BETH", "ZIP": 20814, "Licence Type": "ACC3", "Lic Status": "FC", "Point X": 1285438.0, "Point Y": 482867.0 }, "geometry": { "type": "Point", "coordinates": [ -77.094627551904921, 38.992502475406894 ] } },
{ "type": "Feature", "properties": { "ACCT": "1827473", "Steet Name": "Canal Vista", "City": "POTO", "ZIP": 20854, "Licence Type": "ACC3", "Lic Status": "LI", "Point X": 1232221.0, "Point Y": 505311.0 }, "geometry": { "type": "Point", "coordinates": [ -77.28210752203762, 39.05382505289522 ] } },
{ "type": "Feature", "properties": { "ACCT": "3197951", "Steet Name": "Mt Prospect", "City": "ROCK", "ZIP": 20850, "Licence Type": "ACC3", "Lic Status": "FD", "Point X": 1242438.0, "Point Y": 514135.0 }, "geometry": { "type": "Point", "coordinates": [ -77.246213377482718, 39.078133830332796 ] } },
{ "type": "Feature", "properties": { "ACCT": "2926346", "Steet Name": "Pennywise", "City": "GAIT", "ZIP": 20877, "Licence Type": "ACC3", "Lic Status": "LI", "Point X": 1256912.0, "Point Y": 544025.0 }, "geometry": { "type": "Point", "coordinates": [ -77.195452856534502, 39.160296458342451 ] } },
{ "type": "Feature", "properties": { "ACCT": "1869490", "Steet Name": "Norwood", "City": "CHEV", "ZIP": 20815, "Licence Type": "ACC3", "Lic Status": "LI", "Point X": 1286054.0, "Point Y": 476723.0 }, "geometry": { "type": "Point", "coordinates": [ -77.092438352529072, 38.975634582081469 ] } },
{ "type": "Feature", "properties": { "ACCT": "1157670", "Steet Name": "Colston", "City": "CHEV", "ZIP": 20815, "Licence Type": "ACC3", "Lic Status": "LI", "Point X": 1297006.0, "Point Y": 482777.0 }, "geometry": { "type": "Point", "coordinates": [ -77.053926951521177, 38.992281205633432 ] } },
{ "type": "Feature", "properties": { "ACCT": "528684", "Steet Name": "Rosedale", "City": "BETH", "ZIP": 20814, "Licence Type": "ACC3", "Lic Status": "FD", "Point X": 1286402.0, "Point Y": 482899.0 }, "geometry": { "type": "Point", "coordinates": [ -77.09123596453081, 38.992593032394659 ] } },
{ "type": "Feature", "properties": { "ACCT": "1113200", "Steet Name": "Forest Grove", "City": "SILV", "ZIP": 20902, "Licence Type": "ACC3", "Lic Status": "FC", "Point X": 1301723.0, "Point Y": 493516.0 }, "geometry": { "type": "Point", "coordinates": [ -77.037346345119985, 39.021773702765877 ] } },
{ "type": "Feature", "properties": { "ACCT": "281980", "Steet Name": "Old Orchard", "City": "SILV", "ZIP": 20905, "Licence Type": "ACC3", "Lic Status": "FD", "Point X": 1308537.0, "Point Y": 531413.0 }, "geometry": { "type": "Point", "coordinates": [ -77.013381921125642, 39.125830972261774 ] } },
{ "type": "Feature", "properties": { "ACCT": "1099244", "Steet Name": "Douglas", "City": "SILV", "ZIP": 20902, "Licence Type": "ACC3", "Lic Status": "LI", "Point X": 1299126.0, "Point Y": 494289.0 }, "geometry": { "type": "Point", "coordinates": [ -77.046488673127527, 39.023892843977023 ] } },
{ "type": "Feature", "properties": { "ACCT": "1225810", "Steet Name": "Fairly", "City": "SILV", "ZIP": 20906, "Licence Type": "ACC3", "Lic Status": "FC", "Point X": 1291215.0, "Point Y": 507451.0 }, "geometry": { "type": "Point", "coordinates": [ -77.074372445017616, 39.060017030247479 ] } },
{ "type": "Feature", "properties": { "ACCT": "1151775", "Steet Name": "Hillridge", "City": "KENS", "ZIP": 20895, "Licence Type": "ACC3", "Lic Status": "PE", "Point X": 1292899.0, "Point Y": 491090.0 }, "geometry": { "type": "Point", "coordinates": [ -77.068398732398265, 39.01509862982212 ] } },
{ "type": "Feature", "properties": { "ACCT": "619448", "Steet Name": "Lenox", "City": "BETH", "ZIP": 20817, "Licence Type": "ACC3", "Lic Status": "LI", "Point X": 1279030.0, "Point Y": 478663.0 }, "geometry": { "type": "Point", "coordinates": [ -77.117154219263966, 38.980939120495783 ] } },
{ "type": "Feature", "properties": { "ACCT": "508287", "Steet Name": "Wyoming", "City": "BETH", "ZIP": 20816, "Licence Type": "ACC3", "Lic Status": "PE", "Point X": 1276227.0, "Point Y": 470375.0 }, "geometry": { "type": "Point", "coordinates": [ -77.126974027186165, 38.958172348276427 ] } },
{ "type": "Feature", "properties": { "ACCT": "1142177", "Steet Name": "Crestwood", "City": "KENS", "ZIP": 20895, "Licence Type": "ACC3", "Lic Status": "LI", "Point X": 1285771.0, "Point Y": 493752.0 }, "geometry": { "type": "Point", "coordinates": [ -77.093495160867334, 39.022390296592107 ] } },
{ "type": "Feature", "properties": { "ACCT": "622845", "Steet Name": "Plainview", "City": "BETH", "ZIP": 20817, "Licence Type": "ACC3", "Lic Status": "LI", "Point X": 1278651.0, "Point Y": 479473.0 }, "geometry": { "type": "Point", "coordinates": [ -77.118491159674079, 38.983161800635536 ] } },
{ "type": "Feature", "properties": { "ACCT": "1628368", "Steet Name": "Broad Brook", "City": "BETH", "ZIP": 20814, "Licence Type": "ACC3", "Lic Status": "PE", "Point X": 1284645.0, "Point Y": 490211.0 }, "geometry": { "type": "Point", "coordinates": [ -77.0974451933712, 39.012664581874837 ] } },
{ "type": "Feature", "properties": { "ACCT": "1262366", "Steet Name": "Mitscher", "City": "KENS", "ZIP": 20895, "Licence Type": "ACC3", "Lic Status": "PE", "Point X": 1288532.0, "Point Y": 500509.0 }, "geometry": { "type": "Point", "coordinates": [ -77.083798720765216, 39.040950216730046 ] } },
{ "type": "Feature", "properties": { "ACCT": "546568", "Steet Name": "Westwood", "City": "BETH", "ZIP": 20816, "Licence Type": "ACC3", "Lic Status": "LI", "Point X": 1282083.0, "Point Y": 466135.0 }, "geometry": { "type": "Point", "coordinates": [ -77.106363060236404, 38.946551027658209 ] } },
{ "type": "Feature", "properties": { "ACCT": "1290400", "Steet Name": "Helen", "City": "SILV", "ZIP": 20906, "Licence Type": "ACC3", "Lic Status": "LI", "Point X": 1289960.0, "Point Y": 508856.0 }, "geometry": { "type": "Point", "coordinates": [ -77.07879644797687, 39.063871793965362 ] } },
{ "type": "Feature", "properties": { "ACCT": "U 447667", "Steet Name": "Valley", "City": "BETH", "ZIP": 20817, "Licence Type": "ACC3", "Lic Status": "LI", "Point X": 1275648.0, "Point Y": 485021.0 }, "geometry": { "type": "Point", "coordinates": [ -77.129083004743947, 38.998383777619949 ] } },
{ "type": "Feature", "properties": { "ACCT": "325776", "Steet Name": "Lillian", "City": "SILV", "ZIP": 20904, "Licence Type": "ACC3", "Lic Status": "FD", "Point X": 1308150.0, "Point Y": 514269.0 }, "geometry": { "type": "Point", "coordinates": [ -77.014736325263485, 39.078759617807222 ] } },
{ "type": "Feature", "properties": { "ACCT": "987445", "Steet Name": "Philadelphia", "City": "SILV", "ZIP": 20910, "Licence Type": "ACC3", "Lic Status": "PE", "Point X": 1306101.0, "Point Y": 480932.0 }, "geometry": { "type": "Point", "coordinates": [ -77.021925983801694, 38.98722575396345 ] } },
{ "type": "Feature", "properties": { "ACCT": "383975", "Steet Name": "Eldrid", "City": "SILV", "ZIP": 20904, "Licence Type": "ACC3", "Lic Status": "FC", "Point X": 1312967.0, "Point Y": 509627.0 }, "geometry": { "type": "Point", "coordinates": [ -76.997768226735602, 39.066015188790431 ] } },
{ "type": "Feature", "properties": { "ACCT": "1065730", "Steet Name": "Elm", "City": "TAKO", "ZIP": 20912, "Licence Type": "ACC3", "Lic Status": "PE", "Point X": 1309940.0, "Point Y": 475752.0 }, "geometry": { "type": "Point", "coordinates": [ -77.008418309453276, 38.973004722709589 ] } },
{ "type": "Feature", "properties": { "ACCT": "1881925", "Steet Name": "Beaumont", "City": "SILV", "ZIP": 20904, "Licence Type": "ACC3", "Lic Status": "LI", "Point X": 1310435.0, "Point Y": 513227.0 }, "geometry": { "type": "Point", "coordinates": [ -77.006686851840968, 39.075899383783963 ] } },
{ "type": "Feature", "properties": { "ACCT": "3374306", "Steet Name": "Woodland", "City": "TAKO", "ZIP": 20912, "Licence Type": "ACC3", "Lic Status": "FC", "Point X": 1311434.0, "Point Y": 477008.0 }, "geometry": { "type": "Point", "coordinates": [ -77.003163466980681, 38.976453599785351 ] } },
{ "type": "Feature", "properties": { "ACCT": "3174675", "Steet Name": "Lincoln", "City": "TAKO", "ZIP": 20912, "Licence Type": "ACC3", "Lic Status": "LI", "Point X": 1312839.0, "Point Y": 477840.0 }, "geometry": { "type": "Point", "coordinates": [ -76.998221223792157, 38.978738061820309 ] } },
{ "type": "Feature", "properties": { "ACCT": "328256", "Steet Name": "Schindler", "City": "SILV", "ZIP": 20903, "Licence Type": "ACC3", "Lic Status": "PE", "Point X": 1315318.0, "Point Y": 495238.0 }, "geometry": { "type": "Point", "coordinates": [ -76.989493844265397, 39.026507261004909 ] } },
{ "type": "Feature", "properties": { "ACCT": "1012366", "Steet Name": "Wire", "City": "SILV", "ZIP": 20901, "Licence Type": "ACC3", "Lic Status": "PE", "Point X": 1309260.0, "Point Y": 487780.0 }, "geometry": { "type": "Point", "coordinates": [ -77.010815153660971, 39.006029874452622 ] } },
{ "type": "Feature", "properties": { "ACCT": "284083", "Steet Name": "Mc Ceney", "City": "SILV", "ZIP": 20901, "Licence Type": "ACC3", "Lic Status": "FD", "Point X": 1313612.0, "Point Y": 497473.0 }, "geometry": { "type": "Point", "coordinates": [ -76.995498649423212, 39.032644246179053 ] } },
{ "type": "Feature", "properties": { "ACCT": "2451284", "Steet Name": "Schindler", "City": "SILV", "ZIP": 20903, "Licence Type": "ACC3", "Lic Status": "PE", "Point X": 1314951.0, "Point Y": 494381.0 }, "geometry": { "type": "Point", "coordinates": [ -76.990786004463502, 39.02415431786158 ] } },
{ "type": "Feature", "properties": { "ACCT": "287691", "Steet Name": "Oaklawn", "City": "SILV", "ZIP": 20903, "Licence Type": "ACC3", "Lic Status": "FC", "Point X": 1317924.0, "Point Y": 495265.0 }, "geometry": { "type": "Point", "coordinates": [ -76.98032059232645, 39.026580211495677 ] } },
{ "type": "Feature", "properties": { "ACCT": "641121", "Steet Name": "Lone Oak", "City": "BETH", "ZIP": 20817, "Licence Type": "ACC3", "Lic Status": "PE", "Point X": 1274403.0, "Point Y": 492828.0 }, "geometry": { "type": "Point", "coordinates": [ -77.133503896583278, 39.019814476015803 ] } },
{ "type": "Feature", "properties": { "ACCT": "311393", "Steet Name": "Snowden", "City": "SILV", "ZIP": 20905, "Licence Type": "ACC3", "Lic Status": "LI", "Point X": 1312286.0, "Point Y": 522958.0 }, "geometry": { "type": "Point", "coordinates": [ -77.000166792468548, 39.102617446601798 ] } },
{ "type": "Feature", "properties": { "ACCT": "998313", "Steet Name": "Summit", "City": "KENS", "ZIP": 20895, "Licence Type": "ACC3", "Lic Status": "LI", "Point X": 1288564.0, "Point Y": 492214.0 }, "geometry": { "type": "Point", "coordinates": [ -77.083659292622528, 39.018174871461532 ] } },
{ "type": "Feature", "properties": { "ACCT": "113113", "Steet Name": "Mary Cassatt", "City": "POTO", "ZIP": 20854, "Licence Type": "ACC3", "Lic Status": "LI", "Point X": 1266999.0, "Point Y": 502598.0 }, "geometry": { "type": "Point", "coordinates": [ -77.159623933819432, 39.046607098888323 ] } },
{ "type": "Feature", "properties": { "ACCT": "1271190", "Steet Name": "Parkland", "City": "ROCK", "ZIP": 20853, "Licence Type": "ACC3", "Lic Status": "LI", "Point X": 1287610.0, "Point Y": 517345.0 }, "geometry": { "type": "Point", "coordinates": [ -77.087101413907675, 39.087173777615824 ] } },
{ "type": "Feature", "properties": { "ACCT": "727594", "Steet Name": "Chestnut", "City": "ROCK", "ZIP": 20853, "Licence Type": "ACC3", "Lic Status": "LI", "Point X": 1287655.0, "Point Y": 527221.0 }, "geometry": { "type": "Point", "coordinates": [ -77.086976026910662, 39.114289799425336 ] } },
{ "type": "Feature", "properties": { "ACCT": "459277", "Steet Name": "Taylor", "City": "CHEV", "ZIP": 20815, "Licence Type": "ACC3", "Lic Status": "LI", "Point X": 1290929.0, "Point Y": 478786.0 }, "geometry": { "type": "Point", "coordinates": [ -77.075296385952456, 38.98131128074251 ] } },
{ "type": "Feature", "properties": { "ACCT": "1464372", "Steet Name": "Wallingford", "City": "SILV", "ZIP": 20906, "Licence Type": "ACC3", "Lic Status": "PE", "Point X": 1301191.0, "Point Y": 529240.0 }, "geometry": { "type": "Point", "coordinates": [ -77.03927297823185, 39.119858917378238 ] } },
{ "type": "Feature", "properties": { "ACCT": "77003", "Steet Name": "Circle", "City": "ROCK", "ZIP": 20850, "Licence Type": "ACC3", "Lic Status": "PE", "Point X": 1253458.0, "Point Y": 509589.0 }, "geometry": { "type": "Point", "coordinates": [ -77.207358084816391, 39.065727282351709 ] } },
{ "type": "Feature", "properties": { "ACCT": "602040", "Steet Name": "Coquelin", "City": "CHEV", "ZIP": 20815, "Licence Type": "ACC3", "Lic Status": "LI", "Point X": 1293908.0, "Point Y": 484091.0 }, "geometry": { "type": "Point", "coordinates": [ -77.064830085602281, 38.995883526012392 ] } },
{ "type": "Feature", "properties": { "ACCT": "501572", "Steet Name": "Brandt", "City": "BETH", "ZIP": 20814, "Licence Type": "ACC3", "Lic Status": "LI", "Point X": 1285381.0, "Point Y": 484171.0 }, "geometry": { "type": "Point", "coordinates": [ -77.094832864542852, 38.996082707862925 ] } },
{ "type": "Feature", "properties": { "ACCT": "543430", "Steet Name": "Rodman", "City": "BETH", "ZIP": 20816, "Licence Type": "ACC3", "Lic Status": "LI", "Point X": 1284349.0, "Point Y": 469318.0 }, "geometry": { "type": "Point", "coordinates": [ -77.0984076587348, 38.95529764940401 ] } },
{ "type": "Feature", "properties": { "ACCT": "2305906", "Steet Name": "Pinto", "City": "ROCK", "ZIP": 20850, "Licence Type": "ACC3", "Lic Status": "LI", "Point X": 1252316.0, "Point Y": 521350.0 }, "geometry": { "type": "Point", "coordinates": [ -77.211476135247707, 39.098011592061859 ] } }
]
}
